pharmacy_key,pharmacy_name,section,area,address,phones_str,phones_json
ph_d26d13e9c2a3,LA VIERGE DU SIGNE,SECTION D'ABOBO,A 200 M DERRIERE LE COLLEGE GUICHANROLAIN,,07 78 68 11 74,"[""07 78 68 11 74""]"
ph_2b301737ba3a,DE L'ETOILE,SECTION D'ABOBO,ABOBO,,01 02 44 06 88 ; 07 07 79 06 48,"[""01 02 44 06 88"", ""07 07 79 06 48""]"
ph_a5f88e2dadaa,IRYS,SECTION D'ABOBO,ABOBO,ABOBO ANONKOUA KOUTE EN FACE DE L'HOPITAL DES SŒURS,07 12 67 97 65,"[""07 12 67 97 65""]"
ph_b55296e24658,BIABOU MOSQUEE,SECTION D'ABOBO,ABOBO CARREFOUR SAMANKE,ABOBO BIABOU MORONOU / ROUTE D'ALEPE A COTE DE LA MOSQUEE COSIM,01 71 51 40 85 ; 05 65 12 33 50,"[""01 71 51 40 85"", ""05 65 12 33 50""]"
ph_09aab591bbd2,DE L'ANTENNE,SECTION D'ABOBO,ABOBO CARREFOUR SAMANKE,EN FACE DU 21 EME ARRONDISSEMENT ABOBO DERRIERE RAIL,05 95 20 18 69,"[""05 95 20 18 69""]"
ph_4b9cca62b682,EMS SANTE,SECTION D'ABOBO,ABOBO CARREFOUR SAMANKE,ABOBO AKEIKOI QUARTIER COLATIER DANS LA ZONE DE L'HOPITAL HOUPHOUET BOIGNY,01 72 53 40 40 ; 27 23 55 09 26,"[""01 72 53 40 40"", ""27 23 55 09 26""]"
ph_4a251c2f2e69,LA PAIX,SECTION D'ABOBO,ABOBO CARREFOUR SAMANKE,ABOBO COCOTERAIE / CARREFOUR TOTAL DOKUI A GAUCHE EN VENANT DU ZOO / EN FACE DU GROUPE SCOLAIRE NANTI,25 24 00 21 29,"[""25 24 00 21 29""]"
ph_e52d7067ff99,NOTRE DAME DE FATIMA,SECTION D'ABOBO,ABOBO CARREFOUR SAMANKE,ABOBO PLATEAU DOKUI / SUR VOIE MOBIL - ANGRE / FACE PAROISSE STE MONIQUE,07 07 77 21 49 ; 01 02 86 89 34,"[""07 07 77 21 49"", ""01 02 86 89 34""]"
ph_3b465a114ae5,SAINTE ANNE ABOBO BAOULE,SECTION D'ABOBO,ABOBO CARREFOUR SAMANKE,ABOBO BAOULE CARREFOUR POWER NON LOIN DU GROUPE SCOLAIRE AKE LOBA,01 52 35 82 30 ; 05 07 65 53 10,"[""01 52 35 82 30"", ""05 07 65 53 10""]"
ph_a5d8dbf14d29,D'ABOBO BAOULE,SECTION D'ABOBO,ABOBO COLATIER SUR LA VOIE MENANT A AKEIKOI,ABOBO BAOULE FACE AU COMMISSARIAT DU 34 EME ARRONDISSEMENT,07 47 98 39 21 ; 01 41 75 70 10,"[""07 47 98 39 21"", ""01 41 75 70 10""]"
ph_0116c7e189ba,DU DOKUI (GDE),SECTION D'ABOBO,ABOBO COLATIER SUR LA VOIE MENANT A AKEIKOI,AU DESSUS DU ZOO FACE STATION TOTAL / FACE CIE PLATEAU DOKUI,01 01 60 84 18,"[""01 01 60 84 18""]"
ph_2e642a0983d5,KENNEDY,SECTION D'ABOBO,ABOBO COLATIER SUR LA VOIE MENANT A AKEIKOI,ENTREE QUARTIER KENNEDY - CLOUETCHA / 400 M DU CARREFOUR SANS MANQUER,01 41 12 67 67,"[""01 41 12 67 67""]"
ph_992886d2f6a0,MARIE ESTHER ABOBO,SECTION D'ABOBO,ABOBO COLATIER SUR LA VOIE MENANT A AKEIKOI,ABOBO SUD COCOTERAIE ENTRE LE CHU D'ABOBO ET LE GROUPE SCOLAIRE D'EXCELLENCE CHILDREN OF AFRICA,07 00 90 09 10 ; 27 24 52 55 63,"[""07 00 90 09 10"", ""27 24 52 55 63""]"
ph_5273a83c7899,MIRIA (NOUVELLE),SECTION D'ABOBO,ABOBO COLATIER SUR LA VOIE MENANT A AKEIKOI,ROUTE DU ZOO / CARREFOUR JEAN TAILLY EN FACE DU MARCHE DES GROSSISTES BUS N° 49 & 76,07 09 84 68 48 ; 25 21 01 57 38,"[""07 09 84 68 48"", ""25 21 01 57 38""]"
ph_a45c0cf4c951,PETIT MARCHE DU DOKUI,SECTION D'ABOBO,ABOBO COLATIER SUR LA VOIE MENANT A AKEIKOI,ABOBO ENTRE LE PETIT MARCHE DE DOKUI ET LA MOSQUEE SUR LA VOIE MENANT AU COLLEGE MAHOU,27 22 53 38 67 ; 07 89 76 04 17,"[""27 22 53 38 67"", ""07 89 76 04 17""]"
ph_55f042228404,RAHMAN,SECTION D'ABOBO,ABOBO COLATIER SUR LA VOIE MENANT A AKEIKOI,ABOBO AGBEKOI PRES DE L'ECOLE NORD ET DE L'AGEEP,05 56 46 64 12 ; 01 01 82 05 31 ; 07 79 41 51 01,"[""05 56 46 64 12"", ""01 01 82 05 31"", ""07 79 41 51 01""]"
ph_4b64d467fb0b,RESIDENTIEL ABOBOTE,SECTION D'ABOBO,ABOBO COLATIER SUR LA VOIE MENANT A AKEIKOI,ABOBOTE ENTRE LE CIMETIERE D'ABOBOTE ET LE CARREFOUR SAMAKE,07 05 77 17 45 ; 27 24 57 67 22 ; 27 24 51 41 28 ; 07 05 50 50 50,"[""07 05 77 17 45"", ""27 24 57 67 22"", ""27 24 51 41 28"", ""07 05 50 50 50""]"
ph_d19f65117059,SOGEFIHA,SECTION D'ABOBO,ABOBO COLATIER SUR LA VOIE MENANT A AKEIKOI,ENTRE COMMISSARIAT DU 15EME ET STATION MOBIL / BUS 41 - 08 - 49,27 24 39 00 51,"[""27 24 39 00 51""]"
ph_7d6e87163bb9,TEHOUA,SECTION D'ABOBO,ABOBO COLATIER SUR LA VOIE MENANT A AKEIKOI,AUTOROUTE D'ANYAMA / 500 M APRES GENDARMERIE D'ABOBO SUR LA DROITE,27 24 39 13 13,"[""27 24 39 13 13""]"
ph_526aaf281cbf,BELLE CITE,SECTION D'ABOBO,ABOBO NGUESSANKOI / DERRIERE LA STATION ORYX,,05 44 29 29 69,"[""05 44 29 29 69""]"
ph_073ad3404786,DU RAIL,SECTION D'ABOBO,ABOBO NGUESSANKOI / DERRIERE LA STATION ORYX,ABOBO SAGBE / DERRIERE RAILS,07 47 53 25 32,"[""07 47 53 25 32""]"
ph_03ba70bf7034,SERVIR,SECTION D'ABOBO,ABOBO NGUESSANKOI / DERRIERE LA STATION ORYX,2EME ROND POINT AUTOROUTE ABOBO GARE PRES DU COLLEGE ST JOSEPH,25 24 01 18 20 ; 01 01 61 15 49,"[""25 24 01 18 20"", ""01 01 61 15 49""]"
ph_fe1425f91e48,AGNITIO,SECTION D'ABOBO,ABOBO PK 18,ABOBO ANONKOUA KOUTE EXTENSION / A 50 M DU GROUPE SCOLAIRE PARTHENON / AU CARREFOUR ALLO,01 40 43 10 10 ; 05 01 07 30 30,"[""01 40 43 10 10"", ""05 01 07 30 30""]"
ph_0dc009e33a63,AMINA T,SECTION D'ABOBO,ABOBO PK 18,ANYAMA N'DOTRE KOBAKRO,07 13 17 50 15,"[""07 13 17 50 15""]"
ph_eb6febc30906,CARREFOUR DIALLO,SECTION D'ABOBO,ABOBO PK 18,ABOBO PK 18 - NDOTRE « DERRIERE PONT » AU CARREFOUR DIALLO,07 57 04 86 48,"[""07 57 04 86 48""]"
ph_65c6657cd24f,CARREFOUR KOBAKRO,SECTION D'ABOBO,ABOBO PK 18,,07 12 38 68 31,"[""07 12 38 68 31""]"
ph_0c254d09fe23,CARREFOUR NDOTRE,SECTION D'ABOBO,ABOBO PK 18,ABOBO - NDOTRE / GD CARREFOUR NDOTRE / A 20 M DE LA VOIE NON BITUMEE,01 40 07 27 68 ; 05 86 47 93 87,"[""01 40 07 27 68"", ""05 86 47 93 87""]"
ph_341b06598b6c,CONCORDE PK 18,SECTION D'ABOBO,ABOBO PK 18,ABOBO PK18 EN FACE DE LA CITE SICOGI CONCORDE 2 EN ALLANT A BOIS SEC,27 24 33 23 87 ; 07 79 76 04 28 ; 05 74 13 37 22,"[""27 24 33 23 87"", ""07 79 76 04 28"", ""05 74 13 37 22""]"
ph_222872194269,ELIE FAUSTINE,SECTION D'ABOBO,ABOBO PK 18,ANYAMA N'DOTRE - BLANKRO,05 44 11 26 12 ; 01 40 30 69 54,"[""05 44 11 26 12"", ""01 40 30 69 54""]"
ph_ec76c96be9c1,ESPERANCE,SECTION D'ABOBO,ABOBO PK 18,PK 18 AGOUETO CARREFOUR CMA,07 78 18 18 59 ; 27 24 52 95 01,"[""07 78 18 18 59"", ""27 24 52 95 01""]"
ph_f07e5d884e03,MILIE HEVIE,SECTION D'ABOBO,ABOBO PK 18,ROUTE D'ANYAMA / PK 18 / TERMINUS BUS 76,27 24 52 67 38 ; 07 78 98 35 52 ; 05 64 71 96 91,"[""27 24 52 67 38"", ""07 78 98 35 52"", ""05 64 71 96 91""]"
ph_8e4a291ff381,N'DOTRE,SECTION D'ABOBO,ABOBO PK 18,ABOBO AXE NDOTRE ANYAMA / ENVIRON 600 M CARREFOUR NDOTRE,07 77 10 47 14,"[""07 77 10 47 14""]"
ph_d58909f83b2f,N'DOTRE PALMERAIE 2,SECTION D'ABOBO,ABOBO PK 18,ABOBO N'DOTRE DERRIERE LE GROUPE SCOLAIRE GRACE JEANNE NON LOIN DE LA NOUVELLE FORMATION SANITAIRE EN CONSTRUCTION,05 55 47 53 55 ; 01 02 13 93 96,"[""05 55 47 53 55"", ""01 02 13 93 96""]"
ph_6512413482f1,OLYMPIQUE,SECTION D'ABOBO,ABOBO PK 18,ABOBO NDOTRE A 300 M DU CARREFOUR NDOTRE ROUTE DE YOPOUGON,01 02 27 56 13 ; 07 07 89 99 44,"[""01 02 27 56 13"", ""07 07 89 99 44""]"
ph_c368bec2b207,RESIDENCE ABOBO PK 18,SECTION D'ABOBO,ABOBO PK 18,AUTOROUTE D'ANYAMA / CARREFOUR ANCIEN MARCHE ENTREE CITE SICOGI,07 58 60 26 12 ; 07 67 25 15 85,"[""07 58 60 26 12"", ""07 67 25 15 85""]"
ph_32e3122b4057,SAFIR,SECTION D'ABOBO,ABOBO PK 18,PK 18 / ROUTE D'ANYAMA / DERRIERE PONT / PLACE ANCIENNE BOULANGERIE ROUTE NDOTRE,07 09 86 26 35 ; 05 05 83 54 83,"[""07 09 86 26 35"", ""05 05 83 54 83""]"
ph_e6769a4c00a4,SAINT FRANCOIS,SECTION D'ABOBO,ABOBO PK 18,CARREFOUR TERRE ROUGE SUR L'AXE N'DOTRE STADE OLYMPIQUE,07 88 67 78 69 ; 05 65 46 05 76,"[""07 88 67 78 69"", ""05 65 46 05 76""]"
ph_a9688632d035,ST ALEXANDRE,SECTION D'ABOBO,ABOBO PK 18,EN ALLANT AU BOIS SEC / A L'ENTREE PRINCIPALE DE LA CITE SICOGI CONCORDE,07 59 04 35 42 ; 01 40 29 69 84,"[""07 59 04 35 42"", ""01 40 29 69 84""]"
ph_55defae81141,SYNOVIE,SECTION D'ABOBO,ABOBO PK 18,ABOBO N'DOTRE EN FACE MARCHE GOURO,01 03 91 08 54 ; 07 98 74 61 89 ; 27 36 85 75 24,"[""01 03 91 08 54"", ""07 98 74 61 89"", ""27 36 85 75 24""]"
ph_ce51735982a4,ROUTE AKEIKOI,SECTION D'ABOBO,ABOBO QUARTIER BC TERMINUS DES WOROS WOROS,,07 09 86 26 77 ; 07 09 28 98 94,"[""07 09 86 26 77"", ""07 09 28 98 94""]"
ph_da1394ff3614,D'ALEPE,SECTION D'ABOBO,ALEPE / MONTEZO / BROFODOUME,,07 09 86 33 83,"[""07 09 86 33 83""]"
ph_14ab3a6459a3,DE BROFODOUME,SECTION D'ABOBO,ALEPE / MONTEZO / BROFODOUME,,05 44 90 73 48 ; 01 42 62 32 72,"[""05 44 90 73 48"", ""01 42 62 32 72""]"
ph_8cb70634078a,DES GENERATIONS DE MONTEZO,SECTION D'ABOBO,ALEPE / MONTEZO / BROFODOUME,,07 57 49 38 47 ; 07 07 40 47 08,"[""07 57 49 38 47"", ""07 07 40 47 08""]"
ph_f98c2e85949b,AN - ASR,SECTION D'ABOBO,ANYAMA,,27 23 55 98 22 ; 07 67 48 22 32,"[""27 23 55 98 22"", ""07 67 48 22 32""]"
ph_abcefb197701,BELLEVILLE,SECTION D'ABOBO,ANYAMA,"QUARTIER ADJAME SINAI, BELLEVILLE 2",05 85 41 61 61 ; 01 51 56 65 65,"[""05 85 41 61 61"", ""01 51 56 65 65""]"
ph_d512598545fc,D'ANYAMA (NOUVELLE),SECTION D'ABOBO,ANYAMA,,27 23 55 94 18,"[""27 23 55 94 18""]"
ph_379b492624ab,DU CARREFOUR ANCIENNE GENDARMERIE,SECTION D'ABOBO,ANYAMA,BATIMENT ANCIENNE GENDARMERIE ENTRE USINE UNICAFE ET LA MORGUE D'ANYAMA,27 22 55 64 26,"[""27 22 55 64 26""]"
ph_b22b6561518b,DU CHATEAU,SECTION D'ABOBO,ANYAMA,,07 58 17 29 91 ; 01 02 81 87 49,"[""07 58 17 29 91"", ""01 02 81 87 49""]"
ph_c5952ac78bb3,DU MARCHE D'ANYAMA,SECTION D'ABOBO,ANYAMA,31,27 23 55 82 30 ; 05 06 24 63 65,"[""27 23 55 82 30"", ""05 06 24 63 65""]"
ph_2ca04f8b2958,ELIEL,SECTION D'ABOBO,ANYAMA,ANYAMA QUARTIER RAN FACE A LA GARE,27 33 73 73 56 ; 07 69 74 22 69,"[""27 33 73 73 56"", ""07 69 74 22 69""]"
ph_fabc78adfa46,LE LABELLE,SECTION D'ABOBO,ANYAMA,ANYAMA QUARTIER ZOSSONKOI EXTENSION ENVIRON 500 M DE L'HOPITAL GENERAL D'ANYAMA,05 95 57 95 06 ; 01 43 54 40 83,"[""05 95 57 95 06"", ""01 43 54 40 83""]"
ph_47e6cd0f57b5,MEYDEBA,SECTION D'ABOBO,ANYAMA,ANYAMA EN FACE DU CARREFOUR CISSE (CARREFOUR POLICIER) A COTE DE BONI AUTO ECOLE,27 23 55 62 44 ; 01 01 05 26 44 ; 07 89 95 00 90,"[""27 23 55 62 44"", ""01 01 05 26 44"", ""07 89 95 00 90""]"
ph_936d9860ed2a,ROUTE D'ANYAMA (NVLLE),SECTION D'ABOBO,ANYAMA,ABOBO PK 18 FACE A LA SOCIETE OLAM (ex - UNICAFE) A 100M DE LA STATION PETROCI,01 52 78 88 33,"[""01 52 78 88 33""]"
ph_ad7eb2c63ce6,SANTE POUR TOUS D'ANYAMA,SECTION D'ABOBO,ANYAMA,APRES CARREFOUR ANCIENNE GENDARMERIE DERRIERE ECOLE PMFA AU CARREFOUR ADJA MADOUE TOURE,05 05 08 08 19 ; 07 79 51 31 81,"[""05 05 08 08 19"", ""07 79 51 31 81""]"
ph_8a71e887745d,B.S.A,SECTION D'ABOBO,QUARTIER MICAO APRES LE PARKING DE CARGILL,ABOBO ANOKOUA KOUTE SUR L'AXE ABOBO ANYAMA PRES DE LA CIE ET DE LA NOUVELLE GARE INTERNATIONALE,07 77 81 19 23 ; 07 77 74 70 21,"[""07 77 81 19 23"", ""07 77 74 70 21""]"
ph_d9f7761d4090,DE LA ME (NOUVELLE),SECTION D'ABOBO,QUARTIER MICAO APRES LE PARKING DE CARGILL,"ABOBO GARE GRAND MARCHE ENTRE LA MAIRIE ET LA GENDARMERIE, VOIE EXPRESS D'ANYAMA",27 24 38 38 88 ; 07 07 91 19 99 ; 01 02 92 84 63,"[""27 24 38 38 88"", ""07 07 91 19 99"", ""01 02 92 84 63""]"
ph_a110eaa4c6b0,FIRDAOUS,SECTION D'ABOBO,QUARTIER MICAO APRES LE PARKING DE CARGILL,ABOBO ANADOR EN FACE DE COCO SERVICE / AVANT LA STATION OLA,07 14 01 62 59,"[""07 14 01 62 59""]"
ph_c86ad1b74703,MATENE (NOUVELLE),SECTION D'ABOBO,QUARTIER MICAO APRES LE PARKING DE CARGILL,ABOBO AVOCATIER / ENTRE LA DGI ET LA CIE / ABOBO NORD A 400 M DU CAMP COMMANDO,25 23 01 20 34 ; 01 03 26 08 50 ; 07 58 60 90 27,"[""25 23 01 20 34"", ""01 03 26 08 50"", ""07 58 60 90 27""]"
ph_978076f8ecf3,N'GOHESSE,SECTION D'ABOBO,QUARTIER MICAO APRES LE PARKING DE CARGILL,PLAQUE I / ENTRE LE FOYER FEMININ ET LE MARCHE DE NUIT,07 09 84 14 71 ; 07 49 50 68 96 ; 05 05 00 27 83,"[""07 09 84 14 71"", ""07 49 50 68 96"", ""05 05 00 27 83""]"
ph_abd194210d41,ROND POINT SAMAKE (EX MANZAN),SECTION D'ABOBO,QUARTIER MICAO APRES LE PARKING DE CARGILL,,01 01 01 66 51 ; 07 09 86 70 74 ; 07 79 44 54 32,"[""01 01 01 66 51"", ""07 09 86 70 74"", ""07 79 44 54 32""]"
ph_6acddc7431c6,ABOBO BELLEVILLE (NOUVELLE),SECTION D'ABOBO,ROND POINT DE LA BRIGADE DE GENDARMERIE,ABOBO BAOULE / ROUTE D'ALEPE / AU QUARTIER BELLEVILLE,07 09 87 92 65 ; 07 78 98 87 17,"[""07 09 87 92 65"", ""07 78 98 87 17""]"
ph_3f323547ce5a,AVOCATIER MARCHE,SECTION D'ABOBO,ROND POINT DE LA BRIGADE DE GENDARMERIE,ABOBO AVOCATIER / A GAUCHE APRES LA CIE D'ABOBO NORD / APRES FORMATION SANITAIRE HENRIETTE KONAN BEDIE / CARREFOUR CHATEAU PRES GROUPE SCOLAIRE LES ANGELOTS,27 24 49 70 19 ; 07 09 30 38 52,"[""27 24 49 70 19"", ""07 09 30 38 52""]"
ph_4a92fc46ae6d,D'ABOBOTE,SECTION D'ABOBO,ROND POINT DE LA BRIGADE DE GENDARMERIE,ROUTE DU ZOO / CARREFOUR MENUISERIE PRES DE LA CLINIQUE CENTRALE D'ABOBO,05 06 92 78 45 ; 07 57 48 94 68,"[""05 06 92 78 45"", ""07 57 48 94 68""]"
ph_c512fb590f6d,DE LA CITE,SECTION D'ABOBO,ROND POINT DE LA BRIGADE DE GENDARMERIE,QUARTIER SOGEFIHA N'TANOUA PRES DE LA CITE UNIVERSITAIRE ET TERMINUS BUS SOTRA 49,27 24 39 03 33 ; 07 49 36 82 79,"[""27 24 39 03 33"", ""07 49 36 82 79""]"
ph_5bc04472e6a8,DE LA PLAQUE II,SECTION D'ABOBO,ROND POINT DE LA BRIGADE DE GENDARMERIE,ABOBO PLAQUE II / ENTRE LE MARCHE DE NUIT ET LE CARREFOUR DE LA PLAQUE II,07 09 89 94 44 ; 05 46 63 84 13,"[""07 09 89 94 44"", ""05 46 63 84 13""]"
ph_dcccf4466f52,DU MONASTERE,SECTION D'ABOBO,ROND POINT DE LA BRIGADE DE GENDARMERIE,ROUTE D'ABOBO BAOULE / PRES DU MONASTERE DES SŒURS CLARISTES,07 07 20 11 61 ; 01 40 34 09 10,"[""07 07 20 11 61"", ""01 40 34 09 10""]"
ph_ecc465ab37d6,LES 4 SAISONS,SECTION D'ABOBO,ROND POINT DE LA BRIGADE DE GENDARMERIE,CARREFOUR DU LYCEE ADAMA SANOGO / A L'INTERSECTION DE LA VOIE EGLISE STE MONIQUE - MARCHE D'ABOBOTE ET DE LA VOIE SODECI (DOKUI) - LYCEE ADAMA SANOGO,07 58 60 90 30 ; 01 53 42 30 81 ; 27 21 78 84 35,"[""07 58 60 90 30"", ""01 53 42 30 81"", ""27 21 78 84 35""]"
ph_070dea924543,MARCHE VALENTIN,SECTION D'ABOBO,ROND POINT DE LA BRIGADE DE GENDARMERIE,"ANGRE EXTENSION DANS LE QUARTIER DERRIERE LE CHATEAU D'EAU D'ANGRE, NON LOIN DU MARCHE VALENTIN, DU COMMISSARIAT 40ème ARRONDISSEMENT ET DU FSU COM D'ABOBO BAOULE.""",07 00 44 94 49 ; 01 01 06 11 01 ; 27 22 26 76 73,"[""07 00 44 94 49"", ""01 01 06 11 01"", ""27 22 26 76 73""]"
ph_9a8fac10b50b,PLAQUE ANADOR,SECTION D'ABOBO,ROND POINT DE LA BRIGADE DE GENDARMERIE,ABOBO BANCO SUR LA VOIE EXPRESS ENTRE LE CARREFOUR COCO SERVICE ET LE ROND POINT BANCO,07 12 49 81 38,"[""07 12 49 81 38""]"
ph_700b228e7101,ROUTE DU ZOO,SECTION D'ABOBO,ROND POINT DE LA BRIGADE DE GENDARMERIE,AXE DOKUI - ZOO / A 200 M DES STATIONS PETROCI ET VIDANGE / ENTREE DU QUARTIER DOKUI OLYMPE,01 01 14 04 34 ; 07 89 73 13 56,"[""01 01 14 04 34"", ""07 89 73 13 56""]"
ph_b68d45c0e4f4,ST ANTOINE,SECTION D'ABOBO,ROND POINT DE LA BRIGADE DE GENDARMERIE,ABOBO SAGBE CELESTE / DERRIERE RAIL TAXI GARE,27 20 24 77 47 ; 07 07 87 31 47 ; 01 42 36 67 68 ; 01 02 82 75 87,"[""27 20 24 77 47"", ""07 07 87 31 47"", ""01 42 36 67 68"", ""01 02 82 75 87""]"
ph_7016e5ba9ff9,YANDI,SECTION D'ABOBO,ROND POINT DE LA BRIGADE DE GENDARMERIE,ABOBO AKEIKOI CARREFOUR DESTIN,05 54 31 72 12 ; 07 09 84 14 02,"[""05 54 31 72 12"", ""07 09 84 14 02""]"
ph_e38fca5dbabe,ABOBO GRAND MARCHE,SECTION D'ABOBO,TOIT ROUGE / ROUTE ABOBODOUME,CARREFOUR DU LYCEE MODERNE ABOBO 1&2 / ALIGNEMENT NSIA BANQUE / FACE AU MARCHE,05 44 96 91 01 ; 05 74 10 50 50 ; 05 74 10 20 20 ; 05 85 50 70 70,"[""05 44 96 91 01"", ""05 74 10 50 50"", ""05 74 10 20 20"", ""05 85 50 70 70""]"
ph_d55277f031aa,ACTUELLE,SECTION D'ABOBO,TOIT ROUGE / ROUTE ABOBODOUME,CARREFOUR ANGRE - ABOBO BAOULE / ENTRE LA STATION PETRO - IVOIRE D'ABOBOTE ET LE COLLEGE VICTOR LOBA'D / SUR LA NOUVELLE ROUTE RELIANT ANGRE A ABOBO,25 22 00 41 87 ; 01 01 22 20 32 ; 05 06 03 42 56 ; 07 08 91 85 83,"[""25 22 00 41 87"", ""01 01 22 20 32"", ""05 06 03 42 56"", ""07 08 91 85 83""]"
ph_e261185e636e,AL - FATIH,SECTION D'ABOBO,TOIT ROUGE / ROUTE ABOBODOUME,"ABOBO SAGBE PALMERAIE, ROUTE DE BOCABO, NON LOIN DU COLLEGE BOCABO",01 52 12 12 21,"[""01 52 12 12 21""]"
ph_d4bf710b4846,BARAKA,SECTION D'ABOBO,TOIT ROUGE / ROUTE ABOBODOUME,QUARTIER ANADOR / ENVIRON 400 M DU ROND POINT ET A 50 M DES FEUX TRICOLORES DE LA MOSQUEE MOROBA,01 72 80 00 88 ; 27 20 39 48 62,"[""01 72 80 00 88"", ""27 20 39 48 62""]"
ph_34e70fef5ca5,CARREFOUR ANADOR,SECTION D'ABOBO,TOIT ROUGE / ROUTE ABOBODOUME,ABOBO ROND POINT CARREFOUR ANADOR / ROUTE DES RAILS EN FACE DE L'HOTEL ASSONVON,07 09 89 94 30 ; 01 02 75 75 10,"[""07 09 89 94 30"", ""01 02 75 75 10""]"
ph_8169e8d77b42,DE LA MAIRIE ABOBO,SECTION D'ABOBO,TOIT ROUGE / ROUTE ABOBODOUME,CARREFOUR CENTRE CULTUREL / AVANT NOUVELLE MAIRIE / SUR ROUTE DU ZOO,27 24 39 32 48,"[""27 24 39 32 48""]"
ph_d9c484766415,FADYL,SECTION D'ABOBO,TOIT ROUGE / ROUTE ABOBODOUME,ABOBO KENNEDY CLOUETCHA PRES DE LA MOSQUEE HADJA NABINTOU CISSE,07 88 89 90 76 ; 25 24 00 05 86,"[""07 88 89 90 76"", ""25 24 00 05 86""]"
ph_5d8263297c20,MAGNIFICAT,SECTION D'ABOBO,TOIT ROUGE / ROUTE ABOBODOUME,ROUTE D'ANYAMA NON LOIN DEPOT SOTRA 9 ABOBO AVOCATIER (PRES DU MARCHE DE NUIT),25 24 00 42 36 ; 05 55 43 53 00,"[""25 24 00 42 36"", ""05 55 43 53 00""]"
ph_eb8a0f14de67,NOUR D'ABOBO,SECTION D'ABOBO,TOIT ROUGE / ROUTE ABOBODOUME,"ABOBO QUARTIER KENNEDY, RUE Q158, AU FEU DU CARREFOUR GRAND STOP, FACE A LA STATION SHELL",05 74 00 55 44 ; 01 43 16 46 54,"[""05 74 00 55 44"", ""01 43 16 46 54""]"
ph_89c1555f8b09,NOURAM,SECTION D'ABOBO,TOIT ROUGE / ROUTE ABOBODOUME,ABOBO - DOKUI ROUTE DU ZOO / 100 M DU CARREFOUR MAURITANIEN DANS LE SENS D'ABOBOTE FACE A L'ECOLE PRIMAIRE NOUVELLES ALLIANCES,07 57 96 41 62 ; 05 46 40 41 58,"[""07 57 96 41 62"", ""05 46 40 41 58""]"
ph_04264e831026,ROUTE D'ALEPE,SECTION D'ABOBO,TOIT ROUGE / ROUTE ABOBODOUME,QUARTIER BIABOU 2 AU PORTAIL PRES DE ‘'OP MARKET'',07 97 96 83 37,"[""07 97 96 83 37""]"
ph_7d5eaeceea21,STE CROIX,SECTION D'ABOBO,TOIT ROUGE / ROUTE ABOBODOUME,ABOBO CAMP COMMANDO PRES CLINIQUE MEDICALE DE L'ETOILE ROUTE B.C,07 78 13 75 03,"[""07 78 13 75 03""]"
ph_4114911c3bb8,STE ODILE,SECTION D'ABOBO,TOIT ROUGE / ROUTE ABOBODOUME,ARRET DE BUS PLATEAU DOKUI / ROUTE DU ZOO / CARREFOUR ARRET A DROITE EN VENANT DU ZOO / ALLOCODROME,27 22 42 16 73 ; 07 59 88 16 07 ; 05 04 49 12 41 ; 01 41 62 70 24,"[""27 22 42 16 73"", ""07 59 88 16 07"", ""05 04 49 12 41"", ""01 41 62 70 24""]"
ph_cdfb327ef9e4,YARAPHA,SECTION D'ABOBO,TOIT ROUGE / ROUTE ABOBODOUME,12 60 ABOBO CARREFOUR AKEIKOI / DERRIERE LA CITE UNIVERSITAIRE,27 24 49 12 63,"[""27 24 49 12 63""]"
ph_5aa1991a826a,ADJAME BRACODI,SECTION D'ADJAME,ADJAME CENTRE,GARE NORD SOTRA DANS LA ZONE DE STATIONNEMENT DES GBAKAS / DANS LE SENS ADJAME ABOBO,27 20 37 54 33 ; 07 57 49 46 08,"[""27 20 37 54 33"", ""07 57 49 46 08""]"
ph_c5dbe6786f66,ADJAME LATIN,SECTION D'ADJAME,ADJAME CENTRE,PROLONGEMENT DE L'AVENUE 13 / QUARTIER LATIN HABITAT EXTENSION / PRES DU PETIT MARCHE,01 40 65 86 49 ; 05 75 16 33 30,"[""01 40 65 86 49"", ""05 75 16 33 30""]"
ph_7bfcbc67c35a,D'ATTECOUBE,SECTION D'ADJAME,ADJAME CENTRE,GRAND CARREFOUR D'ATTECOUBE FACE FEUX TRICOLORES / ENTREE BUS 04,27 20 38 07 74 ; 01 01 46 84 85,"[""27 20 38 07 74"", ""01 01 46 84 85""]"
ph_c51911fca60c,DE L'ESPOIR (NOUVELLE),SECTION D'ADJAME,ADJAME CENTRE,ADJAME 220 LGTS RUE PASSANT DEVANT EDIPRESSE ET IMST FACE CITE DE L'ENFANCE CROIX ROUGE 200 M MARCHE GOURO DERRIERE LA MATERNITE THERESE HOUPHOUET BOIGNY,27 20 39 08 31 ; 07 07 88 65 75,"[""27 20 39 08 31"", ""07 07 88 65 75""]"
ph_5fe000678021,DE LA GRANDE MOSQUEE,SECTION D'ADJAME,ADJAME CENTRE,BD. WILLIAM JACOB DERRIERE LES RAILS DE LA GRANDE MOSQUEE,01 03 12 11 91 ; 05 04 91 25 31 ; 27 31 95 95 13,"[""01 03 12 11 91"", ""05 04 91 25 31"", ""27 31 95 95 13""]"
ph_15b6664ade92,DE LA MAIRIE,SECTION D'ADJAME,ADJAME CENTRE,PRES DE LA MAIRIE D'ADJAME,27 20 37 99 99 ; 07 57 48 53 92,"[""27 20 37 99 99"", ""07 57 48 53 92""]"
ph_ea86cb0dd80d,DE LA PROVIDENCE,SECTION D'ADJAME,ADJAME CENTRE,PETIT MARCHE DES 220 LGTS / FACE EDIPRESSE / LIGNE BUS N° 12 83,27 20 37 55 81 ; 07 58 09 46 96 ; 14 00 09 75 86,"[""27 20 37 55 81"", ""07 58 09 46 96"", ""14 00 09 75 86""]"
ph_900d1ff771ab,DES GARES,SECTION D'ADJAME,ADJAME CENTRE,BD NANGUI ABROGOUA / ENTRE LA RAN ET CI - COM,27 20 37 26 24,"[""27 20 37 26 24""]"
ph_a25fb441c725,DU BANCO,SECTION D'ADJAME,ADJAME CENTRE,FACE SERVICE SOCIAL,07 58 17 61 26 ; 07 47 75 47 10 ; 27 20 37 03 12,"[""07 58 17 61 26"", ""07 47 75 47 10"", ""27 20 37 03 12""]"
ph_5c99f58108ab,DU CHATEAU D'EAU,SECTION D'ADJAME,ADJAME CENTRE,BD WILLIAM JACOB / ADJAME NORD / EN DESCENDANT LES RAILS VERS LA SODECI,27 20 37 11 68,"[""27 20 37 11 68""]"
ph_c4c90456b145,DU FORUM,SECTION D'ADJAME,ADJAME CENTRE,A L'INTERIEUR DU FORUM DES MARCHES D'ADJAME,27 20 38 13 64 ; 27 20 38 13 86,"[""27 20 38 13 64"", ""27 20 38 13 86""]"
ph_514394b7a2f1,DU MANGUIER (GRDE),SECTION D'ADJAME,ADJAME CENTRE,ADJAME 220 LGTS QUARTIER EBRIE EN FACE DE L'EGLISE METHODISTE UNIE,27 20 37 20 36 ; 07 97 60 65 11,"[""27 20 37 20 36"", ""07 97 60 65 11""]"
ph_e45723ff6f0b,DU MARCHE (NVLLE),SECTION D'ADJAME,ADJAME CENTRE,,27 20 37 06 17 ; 07 58 09 46 95,"[""27 20 37 06 17"", ""07 58 09 46 95""]"
ph_611147f23f92,DU ROCHER,SECTION D'ADJAME,ADJAME CENTRE,ADJAME NORD / MARCHE BRAMAKOTE,27 20 37 70 63,"[""27 20 37 70 63""]"
ph_b71a7fd2131d,DU TRIOMPHE,SECTION D'ADJAME,ADJAME CENTRE,,07 07 01 14 18 ; 01 42 75 44 56,"[""07 07 01 14 18"", ""01 42 75 44 56""]"
ph_6240c5e982e0,FRATERNITE (NVLLE),SECTION D'ADJAME,ADJAME CENTRE,PRES MATERNITE THERESE HOUPHOUET BOIGNY QUARTIER FRATERNITE,27 20 37 53 22 ; 01 42 90 00 20,"[""27 20 37 53 22"", ""01 42 90 00 20""]"
ph_eb325691b2c3,GBEDE,SECTION D'ADJAME,ADJAME CENTRE,BD. NANGUI ABROGOUA / FACE DISPENSAIRE D'ADJAME / NON LOIN DU COMMISSARIAT DU 3EME ARRONDT ET DU GD MARCHE,07 58 09 47 03,"[""07 58 09 47 03""]"
ph_d8b419ed5940,KANA,SECTION D'ADJAME,ADJAME CENTRE,,05 06 23 90 96 ; 07 57 14 63 09,"[""05 06 23 90 96"", ""07 57 14 63 09""]"
ph_b256e0b82905,KORO,SECTION D'ADJAME,ADJAME CENTRE,ADJAME QUARTIER MARIE THERESE HOUPHOUET BOIGNY A COTE COLLEGE MONTHERLANT BATIMENT B,01 52 78 27 27,"[""01 52 78 27 27""]"
ph_803ad92a9b97,LE BELIER,SECTION D'ADJAME,ADJAME CENTRE,ARRET DE BUS DU GRAND BLOC 220 LGTS / ENTRE LIBERTE & FRATERNITE,27 20 37 12 16 ; 07 77 98 77 78,"[""27 20 37 12 16"", ""07 77 98 77 78""]"
ph_ab8514f5ec9c,MAKISSI,SECTION D'ADJAME,ADJAME CENTRE,220 LGTS / PLACE DU CINEMA LIBERTE,07 57 48 54 32,"[""07 57 48 54 32""]"
ph_8fd5bb7160f6,QUARTIER EBRIE,SECTION D'ADJAME,ADJAME CENTRE,FACE GARE STIFF DALOA,27 20 37 12 56,"[""27 20 37 12 56""]"
ph_e42cd68f8910,SARAH,SECTION D'ADJAME,ADJAME CENTRE,ADJAME 220 LGTS / ROUTE CAMP GENDARMERIE AGBAN / CENTRE COMMERCIAL CARINE N' COUTURE / FACE QUARTIER CHICANE,27 20 39 03 57,"[""27 20 39 03 57""]"
ph_997ff79e34af,SCHIBA,SECTION D'ADJAME,ADJAME CENTRE,RUE DU DISPENSAIRE ANTITUBERCULEUX / FACE MARCHE GOURO (EX LOCAUX COFRUITEL),07 58 17 61 68 ; 01 40 23 59 65,"[""07 58 17 61 68"", ""01 40 23 59 65""]"
ph_72c37353bda1,ST EMMANUEL,SECTION D'ADJAME,ADJAME CENTRE,BD GENERAL DE GAULLE / QUARTIER MIRADOR FACE IMMEUBLE SICOGI / 30 M DU CARREFOUR,27 20 37 98 27 ; 01 02 69 19 38,"[""27 20 37 98 27"", ""01 02 69 19 38""]"
ph_a6ae671baea3,ST MICHEL,SECTION D'ADJAME,ADJAME CENTRE,AVENUE 13 / A 50 M DE L'EGLISE ST MICHEL / EN FACE DU CEG / HARRIS,27 20 37 09 06,"[""27 20 37 09 06""]"
ph_cf5ef61557f8,ADJAME SANTE (NLLE),SECTION D'ADJAME,ADJAME HABITAT EXTENSION PRES DU PETIT MARCHE,BD NANGUI ABROGOUA ENTRE LA MAIRE ET L'INSTITUT DE SANTE PUBLIQUE ( INSP),25 20 00 11 26 ; 07 58 09 47 01,"[""25 20 00 11 26"", ""07 58 09 47 01""]"
ph_853224799681,DES 220 LOGEMENTS (NLLE),SECTION D'ADJAME,ADJAME HABITAT EXTENSION PRES DU PETIT MARCHE,AVENUE GENERAL DE GAULLE / FACE STATION TEXACO,27 20 37 58 26,"[""27 20 37 58 26""]"
ph_be80d3fc80e7,MARIE THERESE D'ADJAME SARL.U,SECTION D'ADJAME,ADJAME HABITAT EXTENSION PRES DU PETIT MARCHE,ADJAME PROLONGEMENT HOTEL BANFORA DERRIERE FRATERNITE MATIN NON LOIN DE LA MATERNITE MARIE THERESE,07 89 08 44 89,"[""07 89 08 44 89""]"
ph_27ddb607f503,AGOUA,SECTION D'ADJAME,ATTECOUBE,,07 09 31 27 51 ; 01 40 21 32 73,"[""07 09 31 27 51"", ""01 40 21 32 73""]"
ph_67698d8ec641,CHRIST STELLA,SECTION D'ADJAME,ATTECOUBE,CITE FAIRMOND ATTECOUBE APRES NOUVELLE GENDARMERIE,01 71 56 18 17 ; 27 20 28 62 96,"[""01 71 56 18 17"", ""27 20 28 62 96""]"
ph_bf6fc237a11f,D'AGBAN,SECTION D'ADJAME,ATTECOUBE,"CARREFOUR CITE FAIRMONT / VILLAGE AGBAN""",27 20 37 22 30 ; 27 20 37 21 67,"[""27 20 37 22 30"", ""27 20 37 21 67""]"
ph_b1e20652a663,DU ROND POINT,SECTION D'ADJAME,ATTECOUBE,ATTECOUBE TERMINUS 04 / QUARTIER EBRIE (BIDJANTE),25 21 01 59 47 ; 07 07 32 43 76,"[""25 21 01 59 47"", ""07 07 32 43 76""]"
ph_ac2e373c54fa,MONTANA,SECTION D'ADJAME,ATTECOUBE,ATTECOUBE VERS TERMINUS BUS 09 / FACE ECOLE FAIDHERBE,07 07 36 57 30,"[""07 07 36 57 30""]"
ph_3f74d760ac2e,REHOBOTH,SECTION D'ADJAME,ATTECOUBE,ATTECOUBE QUARTIER CISCOM PRES DE LA MATERNITE,01 01 03 06 29,"[""01 01 03 06 29""]"
ph_2fda9c015b12,SEBROKO SARL,SECTION D'ADJAME,ATTECOUBE,PRES DU GRAND MARCHE D'ATTECOUBE,27 20 37 67 48,"[""27 20 37 67 48""]"
ph_eee41b842e20,D'AGBAN,SECTION D'ADJAME,ATTECOUBE CARREFOUR DU PONT,"CARREFOUR CITE FAIRMONT / VILLAGE AGBAN""",27 20 37 22 30 ; 27 20 37 21 67,"[""27 20 37 22 30"", ""27 20 37 21 67""]"
ph_6069c39833cb,FATIMA (NOUVELLE),SECTION D'ADJAME,ATTECOUBE FACE BOULANGERIE BBCO,,01 02 56 10 10 ; 05 54 89 17 73,"[""01 02 56 10 10"", ""05 54 89 17 73""]"
ph_d1f73cffca44,ST URIEL,SECTION D'ADJAME,COTE DE LA STATION TOTAL,CARREFOUR DE LA RESIDENCE PAILLET EXTENSION (A L'ENTREE) ROUTE DU ZOO - WILLIAMSVILLE,07 48 83 10 66 ; 01 02 29 72 72,"[""07 48 83 10 66"", ""01 02 29 72 72""]"
ph_42fe28d68f9a,STE MARIE D'ADJAME,SECTION D'ADJAME,PRES DE LA GARE UTB ADJAME,CENTRE COMMERCIAL DE LA POSTE 03 / RUE HARRISTE COTE PARKING PAYANT DERRIERE 3EME ARRDT,27 20 37 54 44 ; 27 20 37 54 46,"[""27 20 37 54 44"", ""27 20 37 54 46""]"
ph_9f939b08c104,MARY DU 4E PONT ADJAME,SECTION D'ADJAME,RUE DES AGOUAS / FACE AU GD MARCHE D'ADJAME,"ADJAME BRAMAKOTE, BLVD DE L'OUEST, PRES DE LA STATION SHELL, AXE SEBROKO - ATTECOUBE, FACE ANCIEN PARC AU MOUTON DE BORIBANA PRES ETS SYLLA ET FRERES",05 96 62 42 59 ; 01 72 82 12 12 ; 27 31 96 94 28,"[""05 96 62 42 59"", ""01 72 82 12 12"", ""27 31 96 94 28""]"
ph_63dc7796a749,AIMESS,SECTION D'ADJAME,WILLIAMSVILLE,,07 57 48 94 83 ; 25 20 00 94 62,"[""07 57 48 94 83"", ""25 20 00 94 62""]"
ph_d8df518874e2,CARREFOUR HMA,SECTION D'ADJAME,WILLIAMSVILLE,PAILLET EXTENSION / NON LOIN DU ZOO CARREFOUR CIE,07 79 47 39 22 ; 05 76 54 52 14,"[""07 79 47 39 22"", ""05 76 54 52 14""]"
ph_a394929f840f,CHRIST MARIE DE PAILLET,SECTION D'ADJAME,WILLIAMSVILLE,PAILLET EXTENSION / ENTRE LE CARREFOUR HUMMER ET LA MAISON BLANCHE DES PETITS,27 20 37 40 00 ; 27 20 27 43 28 ; 07 57 48 94 43,"[""27 20 37 40 00"", ""27 20 27 43 28"", ""07 57 48 94 43""]"
ph_1e4da043b393,DE WILLIAMSVILLE,SECTION D'ADJAME,WILLIAMSVILLE,FACE MOSQUEE ET MARCHE DE WILLIAMSVILLE / PRES DE LA SGBCI,27 20 37 03 45 ; 07 09 00 38 91,"[""27 20 37 03 45"", ""07 09 00 38 91""]"
ph_acd2b7e44dc4,DU PROGRES,SECTION D'ADJAME,WILLIAMSVILLE,FACE EGLISE ST KIZITO,27 20 37 15 25,"[""27 20 37 15 25""]"
ph_11fb40f45f7f,SAINTE ROSALIE,SECTION D'ADJAME,WILLIAMSVILLE,ADJAME WILLIAMSVILLE / MACACI QUARTIER SODECI A,05 94 69 95 01,"[""05 94 69 95 01""]"
ph_ed336f784e54,L'EMMANUEL,SECTION D'ADJAME,WILLIAMSVILLE / ROUTE MACACI / FACE CRS,CARREFOUR DES II PLATEAUX ENTRE STATION SHELL & DEPOT SOTRA,27 20 38 40 17,"[""27 20 38 40 17""]"
ph_8fece0d09c93,DU CHATEAU D'EAU D'ANGRE,SECTION DE COCODY,ANGRE DJIBI RUE DU MARCHE COCOVICO,II PLATEAUX ANGRE DJIBI A PROXIMITE DU CHATEAU D'EAU,27 22 51 07 49 ; 07 09 42 56 60,"[""27 22 51 07 49"", ""07 09 42 56 60""]"
ph_1b04a337f04b,LES ARUMS,SECTION DE COCODY,ANGRE MAHOU A LA RUE DES BARS,COCODY II PLATEAUX 8EME TRANCHE / CARREFOUR BCEAO SUR LA GRANDE VOIE MENANT A LA CNPS,27 22 50 66 40 ; 07 58 17 16 19,"[""27 22 50 66 40"", ""07 58 17 16 19""]"
ph_31472f697458,LUMINANCE K,SECTION DE COCODY,ANGRE MAHOU A LA RUE DES BARS,COCODY ANGRE DJIBI GROUPEMENT 4000 BATIM - CI 300 M DE LA MOSQUEE D'ANGRE ET DU CENTRE DE SANTE,07 88 06 17 41 ; 05 45 95 45 39,"[""07 88 06 17 41"", ""05 45 95 45 39""]"
ph_9e72d8ee520e,ST CHRISTOPHE,SECTION DE COCODY,ANGRE MAHOU A LA RUE DES BARS,ANGRE BD LATRILLE / STAR 5 CARREFOUR PETRO IVOIRE ROUTE D'ABOBO,07 02 93 42 59 ; 01 53 33 50 02,"[""07 02 93 42 59"", ""01 53 33 50 02""]"
ph_6b3261d5a8e1,STE DOROTHEE,SECTION DE COCODY,ANGRE MAHOU A LA RUE DES BARS,ANGRE EXTENSION ENTRE LE COLLEGE LES FLORIANES ET LA PAROISSE SAINTE DOROTHEE,07 79 59 38 84,"[""07 79 59 38 84""]"
ph_874dc20f5dbb,STE HARMONY,SECTION DE COCODY,ANGRE MAHOU A LA RUE DES BARS,QUARTIER DJIBI / VOIE PRINCIPALE / 400 M APRES TERMINUS BUS 82 - 81 / PRES DU SUPER MARCHE DISCOUNT,27 22 52 39 97,"[""27 22 52 39 97""]"
ph_4cc26553c47f,NOTRE DAME DE LA VISITATION,SECTION DE COCODY,BD LATRILLE / CARREFOUR ROUTE DU ZOO,,05 86 32 41 45 ; 07 88 81 21 83,"[""05 86 32 41 45"", ""07 88 81 21 83""]"
ph_713d51849050,AKANDJE,SECTION DE COCODY,BINGERVILLE,BINGERVILLE AKANDJE 2 EN FACE DU MARCHE NON LOIN DES SOCIETES PROMOTIONS PERFORMERS,01 72 75 01 01 ; 05 06 39 16 55 ; 07 00 77 96 70,"[""01 72 75 01 01"", ""05 06 39 16 55"", ""07 00 77 96 70""]"
ph_57a43b40d6a8,AMARYLLIS,SECTION DE COCODY,BINGERVILLE,"BINGERVILLE DERRIERE LE JARDIN BOTANIQUE. CITES SPIAC, OPES 1, S 3 I, GARE DE TAXI",01 41 17 82 92 ; 27 24 30 86 08,"[""01 41 17 82 92"", ""27 24 30 86 08""]"
ph_f275ec5eb866,DU MARCHE,SECTION DE COCODY,BINGERVILLE,PHARMACIE DU PALAIS DE JUSTICE BINGERVILLE / MME KOCOLA CLAUDE - / / BINGERVILLE AV. M'BATTO BOUAKE ROUTE DU PALAIS DE JUSTICE (NANMOUE RESIDENTIEL),01 40 50 74 78 ; 05 04 00 15 26 ; 27 22 55 79 07 ; 07 20 20 34 83,"[""01 40 50 74 78"", ""05 04 00 15 26"", ""27 22 55 79 07"", ""07 20 20 34 83""]"
ph_18e1b860d463,IDUREIL,SECTION DE COCODY,BINGERVILLE,BINGERVILLE KOFFIKRO CARREFOUR BASSAMOISE NON LOIN DE COTE D'IVOIRE ENERGIE,05 55 74 06 18 ; 07 49 37 95 73,"[""05 55 74 06 18"", ""07 49 37 95 73""]"
ph_e3e0b1768c4c,LES COLOMBES,SECTION DE COCODY,BINGERVILLE,"BINGERVILLE, AV KONAN KOUASSI LAMBERT, NON LOIN DE LA PAROISSE ST MARCEL, AKOUAI - SANTAI",07 15 97 55 59 ; 27 24 36 45 62,"[""07 15 97 55 59"", ""27 24 36 45 62""]"
ph_a03ba53f8879,MARINA,SECTION DE COCODY,BINGERVILLE,,27 22 27 04 92 ; 07 97 16 64 99 ; 01 40 08 74 21,"[""27 22 27 04 92"", ""07 97 16 64 99"", ""01 40 08 74 21""]"
ph_3b00f6270249,MOTTO,SECTION DE COCODY,BINGERVILLE,"BINGERVILLE, BLVD DOMINIQUE OUATTARA, PRES DE L'HOTEL FREE WORLD, FACE AU QUARTIER PARIS VILLAGE A PROXIMITE DE LA CITE BNEDT",05 05 10 13 11 ; 07 09 53 76 88 ; 27 22 53 62 35,"[""05 05 10 13 11"", ""07 09 53 76 88"", ""27 22 53 62 35""]"
ph_303a64f49caf,NISSI (NOUVELLE),SECTION DE COCODY,BINGERVILLE,CITE FEH KESSE SUR LA NOUVELLE VOIE GOUDRONNEE / 300 M APRES L'ECOLE MATERNELLE LA PRUNELLE,27 22 40 19 04 ; 07 87 31 66 48 ; 07 58 33 88 48,"[""27 22 40 19 04"", ""07 87 31 66 48"", ""07 58 33 88 48""]"
ph_db8e987380c4,DE COCODY,SECTION DE COCODY,CENTRE COMMERCIAL DE LA CITE DES ARTS,CENTRE COMMERCIAL PETIT MARCHE SCORE / FACE ALLOCODROME,27 22 44 24 95,"[""27 22 44 24 95""]"
ph_a2831364c5e9,AKANDJE,SECTION DE COCODY,CITE MARINA CARREFOUR SYNDICAT,BINGERVILLE AKANDJE 2 EN FACE DU MARCHE NON LOIN DES SOCIETES PROMOTIONS PERFORMERS,01 72 75 01 01 ; 05 06 39 16 55 ; 07 00 77 96 70,"[""01 72 75 01 01"", ""05 06 39 16 55"", ""07 00 77 96 70""]"
ph_6cb2388390e5,AMARYLLIS,SECTION DE COCODY,CITE MARINA CARREFOUR SYNDICAT,"BINGERVILLE DERRIERE LE JARDIN BOTANIQUE. CITES SPIAC, OPES 1, S 3 I, GARE DE TAXI",01 41 17 82 92 ; 27 24 30 86 08,"[""01 41 17 82 92"", ""27 24 30 86 08""]"
ph_6ba487cff8f6,CARREFOUR SANTE,SECTION DE COCODY,CITE MARINA CARREFOUR SYNDICAT,BINGERVILLE AKOUAI SANTAI FACE STATION CORLAY AU CARREFOUR DU LYCEE DES JEUNES FILLES MAMIE FAITAI,07 59 59 30 17,"[""07 59 59 30 17""]"
ph_e0a92da36876,DE GBAGBA (GDE),SECTION DE COCODY,CITE MARINA CARREFOUR SYNDICAT,GBAGBA PETIT PARIS / FACE EGLISE PRESBYTERIENNE,27 24 38 10 74 ; 07 87 73 89 84 ; 01 53 05 39 54,"[""27 24 38 10 74"", ""07 87 73 89 84"", ""01 53 05 39 54""]"
ph_e78e6cf00acc,IDUREIL,SECTION DE COCODY,CITE MARINA CARREFOUR SYNDICAT,BINGERVILLE KOFFIKRO CARREFOUR BASSAMOISE NON LOIN DE COTE D'IVOIRE ENERGIE,05 55 74 06 18 ; 07 49 37 95 73,"[""05 55 74 06 18"", ""07 49 37 95 73""]"
ph_07b56aacc642,SAINTS ANDRE ET MARTHE,SECTION DE COCODY,CITE MARINA CARREFOUR SYNDICAT,ADJAME - BINGERVILLE / FACE COMPLEXE SPORTIF A 100 M DE SOCOCE,27 24 31 60 50 ; 07 00 77 80 16,"[""27 24 31 60 50"", ""07 00 77 80 16""]"
ph_74044bd5dff8,STE MARIE DE LA CELLE,SECTION DE COCODY,CITE MARINA CARREFOUR SYNDICAT,BINGERVILLE DERRIERE EMPT / CITE PROMOGIM OLYMPIQUE (MTNKRO),07 02 95 24 31 ; 01 51 92 25 91,"[""07 02 95 24 31"", ""01 51 92 25 91""]"
ph_d641fab13cd0,AKANDJE,SECTION DE COCODY,CITE PALMA / FACE RESTAURANT COUP DE FREIN,BINGERVILLE AKANDJE 2 EN FACE DU MARCHE NON LOIN DES SOCIETES PROMOTIONS PERFORMERS,01 72 75 01 01 ; 05 06 39 16 55 ; 07 00 77 96 70,"[""01 72 75 01 01"", ""05 06 39 16 55"", ""07 00 77 96 70""]"
ph_575f79b75ce6,AKRE ALBERT ASSAMOI,SECTION DE COCODY,CITE PALMA / FACE RESTAURANT COUP DE FREIN,NLLE GARE ROUTIERE,07 57 13 68 36 ; 01 40 95 24 28,"[""07 57 13 68 36"", ""01 40 95 24 28""]"
ph_a575428d5c43,HAVILA (EX PRINCIPALE),SECTION DE COCODY,CITE PALMA / FACE RESTAURANT COUP DE FREIN,RUE PRINCIPALE,07 68 70 45 46,"[""07 68 70 45 46""]"
ph_38329f47460c,IDUREIL,SECTION DE COCODY,CITE PALMA / FACE RESTAURANT COUP DE FREIN,BINGERVILLE KOFFIKRO CARREFOUR BASSAMOISE NON LOIN DE COTE D'IVOIRE ENERGIE,05 55 74 06 18 ; 07 49 37 95 73,"[""05 55 74 06 18"", ""07 49 37 95 73""]"
ph_8cee3da988d0,NOTRE DAME DE LA NATIVITE,SECTION DE COCODY,CITE PALMA / FACE RESTAURANT COUP DE FREIN,AKOUAI SANTE A 100 M DU CARREFOUR CIE SUR LA ROUTE D'AKANDJE,21 21 80 51 85,"[""21 21 80 51 85""]"
ph_20c45a9ba6ba,ST ARMEL DU PALAIS,SECTION DE COCODY,CITE PALMA / FACE RESTAURANT COUP DE FREIN,"SITUEE A 100 M DU PALAIS DE JUSTICE DE BINGERVILLE, AXE M'BATTO - BOUAKE (NANMOUE RESIDENCE)",05 65 44 81 81 ; 01 51 31 81 81,"[""05 65 44 81 81"", ""01 51 31 81 81""]"
ph_083a6790f041,STE MARIE DE LA CELLE,SECTION DE COCODY,CITE PALMA / FACE RESTAURANT COUP DE FREIN,BINGERVILLE DERRIERE EMPT / CITE PROMOGIM OLYMPIQUE (MTNKRO),07 02 95 24 31 ; 01 51 92 25 91,"[""07 02 95 24 31"", ""01 51 92 25 91""]"
ph_1c8ea42ac57a,BOULEVARD DE FRANCE,SECTION DE COCODY,COCODY,GD MARCHE DE COCODY / STATION AGIP BUS N° 28 - 74,27 22 44 74 08,"[""27 22 44 74 08""]"
ph_b16faa04ad18,CHARISMA,SECTION DE COCODY,COCODY,CITE DES ARTS / ENTRE L'ECOLE DE GENDARMERIE ET L'INSAAC,01 01 83 03 09 ; 27 22 44 28 81,"[""01 01 83 03 09"", ""27 22 44 28 81""]"
ph_70e4764bcfce,DES ARTS (GDE),SECTION DE COCODY,COCODY,,27 22 44 93 56 ; 01 02 04 17 11,"[""27 22 44 93 56"", ""01 02 04 17 11""]"
ph_8a6811e43723,DU LYCEE TECHNIQUE,SECTION DE COCODY,COCODY,ROUTE DU LYCEE TECHNIQUE PRES DE LA CLINIQUE DU GOCI,27 22 44 60 77 ; 07 07 03 77 72,"[""27 22 44 60 77"", ""07 07 03 77 72""]"
ph_d8538a7f094a,MALIKA (EX STE MARIE),SECTION DE COCODY,COCODY,COCODY BD France / IMMEUBLE NSIA A COTE DE LA MAISON DU PDCI RDA,27 22 48 69 20 ; 07 00 77 74 12,"[""27 22 48 69 20"", ""07 00 77 74 12""]"
ph_b2e1101ff039,NOTRE DAME DE LA PIETE,SECTION DE COCODY,COCODY,FACE A LA PMI / COCODY VAL DOYEN / COCODY SUD,27 22 55 18 03 ; 07 57 49 38 61,"[""27 22 55 18 03"", ""07 57 49 38 61""]"
ph_797eddc2a165,ST FRANCOIS DE DANGA,SECTION DE COCODY,COCODY,FACE CENTRE CULTUREL AMERICAIN / COCODY DANGA / PROLONGEMENT POSTE DE COCODY,07 04 63 15 90 ; 05 55 65 09 88,"[""07 04 63 15 90"", ""05 55 65 09 88""]"
ph_7102315c1808,ARC EN CIEL,SECTION DE COCODY,COCODY 2 PLATEAUX - AGBAN / ROUTE WILLIAMSVILLE,20 67 II PLATEAUX RUE DES JARDINS / CARREFOUR COMMISSARIAT 12eme ARRONDT,27 22 41 33 90,"[""27 22 41 33 90""]"
ph_51147d97d2aa,LES TULIPES,SECTION DE COCODY,COCODY 2 PLATEAUX - AGBAN / ROUTE WILLIAMSVILLE,II PLATEAUX BD LATRILLE / ESPACE SANTA MARIA / FACE MOSQUEE D'AGHIEN,27 22 42 50 17,"[""27 22 42 50 17""]"
ph_683e54239363,ORCHID,SECTION DE COCODY,COCODY 2 PLATEAUX - AGBAN / ROUTE WILLIAMSVILLE,2 PLATEAUX / BOULEVARD LATRILLE CARREFOUR MACACI,27 22 40 42 75,"[""27 22 40 42 75""]"
ph_3b3ed92473ed,ST AMBROISE,SECTION DE COCODY,COCODY 2 PLATEAUX - AGBAN / ROUTE WILLIAMSVILLE,,07 07 20 34 77 ; 27 22 53 47 78,"[""07 07 20 34 77"", ""27 22 53 47 78""]"
ph_d798fd2cca5f,LA REDEMPTION SARLU,SECTION DE COCODY,DERRIERE LE MARCHE ET LA MOSQUEE DE LA DJIBI,ANGRE CHATEAU D'EAU / FIN GOUDRON EN FACE DU TERRAIN MILITAIRE (FPM),25 22 01 61 96 ; 07 89 43 63 70,"[""25 22 01 61 96"", ""07 89 43 63 70""]"
ph_ef9df9bb9fb4,8ÈME TRANCHE,SECTION DE COCODY,II PLATEAUX,CAFEIERS 6 / APRES LA DJIBI / ROUTE 9EME TRANCHE / FACE CITE BCEAO,27 22 52 34 90 ; 07 48 20 90 78,"[""27 22 52 34 90"", ""07 48 20 90 78""]"
ph_8a815f745392,BELLEVUE,SECTION DE COCODY,II PLATEAUX,ANGRE 8EME TRANCHE SOLEIL II - CAFEIER 8 / APRES LE TERMINUS 205 ET LA PHCIE LES ARCADES SUR LA VOIE EN PAVE,27 22 50 06 24 ; 07 79 33 06 11 ; 07 07 09 95 08,"[""27 22 50 06 24"", ""07 79 33 06 11"", ""07 07 09 95 08""]"
ph_82f003ee6127,BONNE SANTE,SECTION DE COCODY,II PLATEAUX,,27 22 25 60 29 ; 05 86 57 92 36 ; 07 68 60 92 05,"[""27 22 25 60 29"", ""05 86 57 92 36"", ""07 68 60 92 05""]"
ph_59c3945eb762,DE LA DJIBI,SECTION DE COCODY,II PLATEAUX,3EME RUE A GAUCHE / APRES TERMINUS BUS 81 / 82 / DANS LE CENTRE COMMERCIAL DE LA DJIBI,27 22 52 23 76,"[""27 22 52 23 76""]"
ph_e699bdc6b327,DES ALLEES,SECTION DE COCODY,II PLATEAUX,ANGRE BD LATRILLE / 200 M APRES PETRO - IVOIRE / CARREFOUR CAFEIERS 2 STARS 6 / NON LOIN DES ETABLISSEMENTS COUSTEAU,27 22 42 14 58 ; 07 77 37 44 28,"[""27 22 42 14 58"", ""07 77 37 44 28""]"
ph_df328b0149a9,DES LAUREADES,SECTION DE COCODY,II PLATEAUX,ANGRE - ROUTE D'ATTOBAN (RUE L 155) VERS LA DJIBI / FACE TERRAIN SPORT D'ANGRE OU PAR BD LATRILLE FEUX TRICOLORES / COMMISSARIAT D'ANGRE TOURNER A DROITE TOUT DROIT A 400 M,27 22 42 48 10 ; 05 05 79 14 03 ; 07 08 19 80 86,"[""27 22 42 48 10"", ""05 05 79 14 03"", ""07 08 19 80 86""]"
ph_3aa02df0727e,DES PAVILLONS,SECTION DE COCODY,II PLATEAUX,"COCODY 2 PLATEAUX VALLON, DERRIERE STATION TOTAL RUE DES JARDINS, A COTE DE L'HOTEL LA LICORNE",27 22 27 01 17 ; 07 10 39 41 94 ; 05 00 17 57 57,"[""27 22 27 01 17"", ""07 10 39 41 94"", ""05 00 17 57 57""]"
ph_de372e906dd6,DIVINE ONCTION,SECTION DE COCODY,II PLATEAUX,II PLATEAUX RUE J 92 / A 500 M DE SOCOCE VERS LE 12E ARRDT,27 22 41 62 84,"[""27 22 41 62 84""]"
ph_f65c1f41898a,EMERAUDE,SECTION DE COCODY,II PLATEAUX,DERRIERE LA STATION TOTAL SOCOCE II PLATEAUX EN FACE DE LA CLINIQUE LE ROCHER,27 21 57 28 33 ; 01 53 20 42 67,"[""27 21 57 28 33"", ""01 53 20 42 67""]"
ph_f54902f18aae,ESPACE SANTE,SECTION DE COCODY,II PLATEAUX,,01 40 45 06 23 ; 07 07 58 53 86,"[""01 40 45 06 23"", ""07 07 58 53 86""]"
ph_d1a99a295d15,ESPERANCE (NLLE),SECTION DE COCODY,II PLATEAUX,,27 22 53 33 01 ; 07 09 83 40 02,"[""27 22 53 33 01"", ""07 09 83 40 02""]"
ph_9f7745eafa38,HERMES,SECTION DE COCODY,II PLATEAUX,II PLATEAUX ANGRE 9EME TRANCHE PRES DE LA CNPS ENTREE CITE STAR 12,27 22 28 70 57 ; 07 69 45 81 33 ; 27 22 50 10 32,"[""27 22 28 70 57"", ""07 69 45 81 33"", ""27 22 50 10 32""]"
ph_ad993df5506b,NORD SUD,SECTION DE COCODY,II PLATEAUX,II PLATEAUX ANGRE CHATEAU / CARREFOUR DES PRETRES,07 11 11 11 55 ; 27 22 27 15 75,"[""07 11 11 11 55"", ""27 22 27 15 75""]"
ph_2b49dba6140e,NOTRE DAME DU GRAND SIGNE,SECTION DE COCODY,II PLATEAUX,COCODY ANGRE AXE 7ème et 8ème TRANCHE APRES LE PONT SORO,27 22 42 64 13 ; 07 89 12 75 15,"[""27 22 42 64 13"", ""07 89 12 75 15""]"
ph_c4f84b5d2798,RENAISSANCE,SECTION DE COCODY,II PLATEAUX,COCODY II PLATEAUX / COMMANDANT SANON JUSTE DERRIERE APRES ECOLE ITS II PLATEAUX,27 33 77 80 22,"[""27 33 77 80 22""]"
ph_234b6ec4e302,SANTE DE VIE,SECTION DE COCODY,II PLATEAUX,II PLATEAUX AGHIEN / COMMANDANT SANON PRES DE LA BOULANGERIE TOP PAIN,05 06 35 93 05 ; 07 57 49 22 91 ; 07 47 72 03 04,"[""05 06 35 93 05"", ""07 57 49 22 91"", ""07 47 72 03 04""]"
ph_8e5d1627f67c,ST GIL,SECTION DE COCODY,II PLATEAUX,II PLATEAUX RUE DES JARDINS / FACE STATION CORLAY AVANT L'ECHANGEUR / VERS L'ECOLE DE POLICE,27 22 41 94 10 ; 27 22 41 15 42,"[""27 22 41 94 10"", ""27 22 41 15 42""]"
ph_4dd221351c19,STAR 9 ANGRE M. YAO DOU N. PATERNE,SECTION DE COCODY,II PLATEAUX,ANGRE PETRO IVOIRE ENTRE L'EGLISE ST AMBROISE DU JUBILE ET LE COLLEGE VICTOR LOBA,07 88 35 99 11 ; 05 00 65 71 71 ; 07 78 96 54 38,"[""07 88 35 99 11"", ""05 00 65 71 71"", ""07 78 96 54 38""]"
ph_44fc0b999069,STE CECILE,SECTION DE COCODY,II PLATEAUX,COCODY II PLATEAUX RUE DES JARDINS AU NIVEAU DU CENTRE PAROISSIAL STE CECILE,27 22 42 63 35 ; 27 22 54 17 49 ; 07 03 93 83 97,"[""27 22 42 63 35"", ""27 22 54 17 49"", ""07 03 93 83 97""]"
ph_7a33dfb8a93a,STE MONIQUE,SECTION DE COCODY,II PLATEAUX,RUE ANGRE - PLATEAU DOKUI / CARREFOUR LYCEE MAHOU,07 58 17 61 66,"[""07 58 17 61 66""]"
ph_c73a3e40e945,STE TRINITE,SECTION DE COCODY,II PLATEAUX,CARREFOUR BD LATRILLE / ROUTE DE WILLIAMSVILLE / PRES SUPER MARCHE PRIX CHOC / LIGNE BUS 49,27 22 41 68 88,"[""27 22 41 68 88""]"
ph_6f080cf1adb9,APPAUL,SECTION DE COCODY,II PLATEAUX FACE AU 12ÈME ARRONDISSEMENT,COCODY 8EME TRANCHE 50 M DU COLLEGE STE CAMILLE / INTERIEUR CENTRE COMMERCIAL « PARK'N SHOP »,27 22 50 26 40,"[""27 22 50 26 40""]"
ph_543316a69700,BEL HORIZON,SECTION DE COCODY,II PLATEAUX FACE AU 12ÈME ARRONDISSEMENT,BD LATRILLE ANGRE NORD / 50 M PETRO IVOIRE - LATRILLE PRES DE WESTERN UNION,01 73 11 10 10,"[""01 73 11 10 10""]"
ph_1198e6a6560c,EMMANUEL,SECTION DE COCODY,II PLATEAUX FACE AU 12ÈME ARRONDISSEMENT,,05 85 54 32 97 ; 07 67 47 68 95,"[""05 85 54 32 97"", ""07 67 47 68 95""]"
ph_2a4bf1cfe7fd,LAS PALMAS,SECTION DE COCODY,II PLATEAUX FACE AU 12ÈME ARRONDISSEMENT,II PLATEAUX - AGHIEN / BD LATRILLE - CARREFOUR LAS PALMAS,27 22 42 14 79 ; 01 01 21 65 65,"[""27 22 42 14 79"", ""01 01 21 65 65""]"
ph_acf45cbc20db,LATRILLE,SECTION DE COCODY,II PLATEAUX FACE AU 12ÈME ARRONDISSEMENT,BD LATRILLE FACE L'ENA,27 22 46 40 04 ; 01 03 76 30 40 ; 07 57 49 08 40,"[""27 22 46 40 04"", ""01 03 76 30 40"", ""07 57 49 08 40""]"
ph_7f72054e323f,SAINT ANGE DES AMIS,SECTION DE COCODY,II PLATEAUX FACE AU 12ÈME ARRONDISSEMENT,ANGRE 7E TRANCHE CARREFOUR BLUETOOTH DANS L'ANCIENTE DE L'ANCIEN BAR BLUETOOTH,27 22 30 05 72 ; 07 78 41 52 77 ; 07 69 35 40 24,"[""27 22 30 05 72"", ""07 78 41 52 77"", ""07 69 35 40 24""]"
ph_3d6f0b7a3701,ANALYA,SECTION DE COCODY,RIVIERA,400 M DU CENTRE HOSPITALIER UNIVERSITAIRE REGIONALE D'ANGRE / AU FEU FACE CITE GESTOCI,07 08 95 19 25,"[""07 08 95 19 25""]"
ph_e18aebbbee26,BD MITTERRAND,SECTION DE COCODY,RIVIERA,ROUTE DE BINGERVILLE / CARREFOUR BONOUMIN KM 9 APRES CARREFOUR STE FAMILLE,27 22 47 90 45,"[""27 22 47 90 45""]"
ph_644d71eb2aef,BETHEL - ATTOBAN,SECTION DE COCODY,RIVIERA,,27 22 43 22 83 ; 07 78 39 76 46 ; 07 47 11 48 41,"[""27 22 43 22 83"", ""07 78 39 76 46"", ""07 47 11 48 41""]"
ph_137c5559d2e4,DE L'IMMACULEE CONCEPTION,SECTION DE COCODY,RIVIERA,RIVIERA GOLF / FACE CITE « LES JARDINS DE LA RIVIERA» NON LOIN PETITE MOSQUEE DE LA RIVIERA APRES L'UNIVERSITE FHB,27 22 54 13 93 ; 07 09 77 30 30,"[""27 22 54 13 93"", ""07 09 77 30 30""]"
ph_e465f2f3d341,DE LA RIVIERA,SECTION DE COCODY,RIVIERA,CARREFOUR RIVIERA II,07 58 17 62 14,"[""07 58 17 62 14""]"
ph_dd199266b4bf,DU PATRIMOINE,SECTION DE COCODY,RIVIERA,COCODY RIVIERA ATTOBAN AV DU COLONEL ZINSOU CARREFOUR CAMP,27 22 31 94 29 ; 05 01 41 33 33,"[""27 22 31 94 29"", ""05 01 41 33 33""]"
ph_a7a7c299a0f6,DUNIA (NOUVELLE),SECTION DE COCODY,RIVIERA,II PLATEAUX 7EME TRANCHE / ROUTE D'ATTOBAN / 50 M COMMISSARIAT 30EME ARRONDISSEMENT,27 22 24 61 59 ; 07 79 05 05 05,"[""27 22 24 61 59"", ""07 79 05 05 05""]"
ph_46d9fc149f72,ENICA,SECTION DE COCODY,RIVIERA,CARREFOUR MARCHE DE LA PALMERAIE / DIRECTION CARREFOUR GUIRAUD ET TOUT DROIT FIN GOUDRON,27 22 49 33 75 ; 05 46 47 46 94,"[""27 22 49 33 75"", ""05 46 47 46 94""]"
ph_eba04251fba7,LES 3 SOURCES,SECTION DE COCODY,RIVIERA,CARREFOUR PETRO - IVOIRE DJOROBITE 1 / ADOSSEE A CHATEAUX ET LUMIERES / AVENUE TIEMOKO MEYLIET AVANT LE,27 22 89 99 71 ; 07 10 29 55 15 ; 05 02 32 59 59 ; 01 51 34 96 96,"[""27 22 89 99 71"", ""07 10 29 55 15"", ""05 02 32 59 59"", ""01 51 34 96 96""]"
ph_b6129bef3369,LES ELIAS,SECTION DE COCODY,RIVIERA,"RIVIERA GOLF - CARREFOUR ELIAS / JARDINS DE LA RIVIERA PRES DU GRAND TERRAIN DES TOURS SICOGI, ELIAS ET JARDINS / 3, RUE D 46",27 22 43 28 85 ; 07 08 08 96 93,"[""27 22 43 28 85"", ""07 08 08 96 93""]"
ph_991d374826d7,LES JARDINS D'EDEN,SECTION DE COCODY,RIVIERA,RIVIERA 4 / AXE MPOUTO - CIAD - AMBASSADE DE CHINE / FACE ECOLE LIBANAISE,27 22 43 82 67 ; 07 79 19 20 04 ; 01 01 37 58 10 ; 07 68 78 44 51,"[""27 22 43 82 67"", ""07 79 19 20 04"", ""01 01 37 58 10"", ""07 68 78 44 51""]"
ph_b7f552b018a0,LES ROSIERS,SECTION DE COCODY,RIVIERA,66 / RIVIERA PALMERAIE / ROSIERS PROGRAMME 3 / ROND POINT ECOLE KOUADIO ASSAHORE TERMINUS BUS 210,27 22 49 21 67,"[""27 22 49 21 67""]"
ph_7ed65c818404,MARTHE ROBIN,SECTION DE COCODY,RIVIERA,RIVIERA PALMERAIE CITE SIPIM 3 / FACE ESPACE VERT / ROUTE ST VIATEUR,27 22 49 24 79 ; 07 58 17 16 14,"[""27 22 49 24 79"", ""07 58 17 16 14""]"
ph_088dc9f6132d,NOTRE DAME DE L'INCARNATION,SECTION DE COCODY,RIVIERA,RIVIERA PALMERAIE NON LOIN DU CENTRE DE SANTE A BASE COMMUNAUTAIRE,27 22 59 20 39 ; 07 08 94 58 53 ; 07 89 00 98 54,"[""27 22 59 20 39"", ""07 08 94 58 53"", ""07 89 00 98 54""]"
ph_dfac1e118bce,PALMERAIE SARL,SECTION DE COCODY,RIVIERA,RIVIERA III - ENTRE LES DEUX STATIONS D'ESSENCE ET LE ROND POINT / EN FACE DE L'ESPACE DE JEU SOCOCE,27 22 47 91 19,"[""27 22 47 91 19""]"
ph_9309ccbea892,PHILADELPHIE,SECTION DE COCODY,RIVIERA,COCODY RIVIERA GOLF CARREFOUR SOL BENI A L'ARRET DE BUS N°28 M'POUTO,05 44 62 35 42,"[""05 44 62 35 42""]"
ph_0a769664cf4a,RIVIERA M'BADON,SECTION DE COCODY,RIVIERA,RIVIERA M'BADON A COTE DE L'AMBASSADE DE CHINE,27 24 31 67 12 ; 07 59 37 20 39,"[""27 24 31 67 12"", ""07 59 37 20 39""]"
ph_14a6fdec51b2,ST ANGE,SECTION DE COCODY,RIVIERA,RIVIERA II ROUTE D'ATTOBAN / PRES DU COLLEGE ANDRE MALRAUX,27 22 43 22 05 ; 01 01 62 53 60,"[""27 22 43 22 05"", ""01 01 62 53 60""]"
ph_b3ff074f5909,ST BERNARD,SECTION DE COCODY,RIVIERA,"CITE ATTOBAN / PRES DE CIPHARM / PAR CARREFOUR RIVIERA II / TOURNER VERS GROUPE SCOLAIRE ANDRE MALRAUX ET TOUT DROIT OU / PAR LA RUE DES II PLATEAUX VOIE D'ACCES FACE RESTAURANT NUIT DU SAÎGON""",27 22 43 65 46 ; 07 78 99 52 51 ; 07 08 44 90 37,"[""27 22 43 65 46"", ""07 78 99 52 51"", ""07 08 44 90 37""]"
ph_ac5a50ec9947,ST JEAN PAUL II DE BONOUMIN,SECTION DE COCODY,RIVIERA,RIVIERA BONOUMIN 500 M AU NORD D'ABIDJAN MALL APRES CARREFOUR DJEDJE MADY,27 22 28 86 87 ; 07 79 41 92 76,"[""27 22 28 86 87"", ""07 79 41 92 76""]"
ph_46b50ff3f5b9,ST PAUL,SECTION DE COCODY,RIVIERA,RIVIERA PALMERAIE / BONOUMIN CARREFOUR CITE PRESSE (SYNINFO) EN FACE DE LA RESIDENCE DES FRERES DU SACRE CŒUR,27 22 49 29 01,"[""27 22 49 29 01""]"
ph_f9c6ed29304b,ST PIERRE D'ANONO,SECTION DE COCODY,RIVIERA,COCODY - RIVIERA / ZONE DE LA GARE D'ANONO,21 22 80 03 74 ; 27 24 33 75 87 ; 27 24 56 36 67,"[""21 22 80 03 74"", ""27 24 33 75 87"", ""27 24 56 36 67""]"
ph_e1b43dfb7ac1,ST RAPHAEL ARCHANGE,SECTION DE COCODY,RIVIERA,RIVIERA PALMERAIE / SITUE ENTRE LE SUPERMARCHE CDCI ET L'ECOLE MACI - CANADA,27 22 51 25 75 ; 01 40 34 08 94 ; 07 12 66 85 74,"[""27 22 51 25 75"", ""01 40 34 08 94"", ""07 12 66 85 74""]"
ph_54a3ecd611c8,STE AGATHE,SECTION DE COCODY,RIVIERA,RIVIERA III ROUTE DU LYCEE FRANÇAIS,27 22 47 48 19,"[""27 22 47 48 19""]"
ph_ac69d35d10fb,STE AGNES,SECTION DE COCODY,RIVIERA,RIVIERA BONOUMIN / CARREFOUR TOP PAIN TERMINUS WORO WORO ENTRE LES RESIDENCES EMERAUDE IV ABRI 2000 1 ET LE ROND POINT ADO,01 01 13 84 17,"[""01 01 13 84 17""]"
ph_71896be1dcdd,STE CLEMENTINE,SECTION DE COCODY,RIVIERA,A L'EXTREME GAUCHE DU NOUVEAU CHU D'ANGRE EN SORTANT PAR L'ENTREE PRINCIPALE,01 52 79 93 90 ; 27 23 49 23 84 ; 27 22 20 67 19,"[""01 52 79 93 90"", ""27 23 49 23 84"", ""27 22 20 67 19""]"
ph_3fb33997df36,STE FAMILLE,SECTION DE COCODY,RIVIERA,RIVIERA III ALLABRA / PAR LE BD MITTERRAND / FACE A CAP NORD,27 22 47 76 76 ; 07 07 41 38 58,"[""27 22 47 76 76"", ""07 07 41 38 58""]"
ph_ee6ddf5a92a2,STE MARIE DES BEATITUDES,SECTION DE COCODY,RIVIERA,RIVIERA PALMERAIE / SCI LES ROSIERS 1ER PROGRAMME EN FACE DE LA BARRIERE 6,07 12 18 47 91 ; 01 71 20 67 21 ; 05 05 00 09 52,"[""07 12 18 47 91"", ""01 71 20 67 21"", ""05 05 00 09 52""]"
ph_3bd3a56d343e,TERA (NOUVELLE),SECTION DE COCODY,RIVIERA,II PLATEAUX 7 EME TRANCHE DANS LE CENTRE COMMERCIAL TERA,07 77 88 74 14 ; 27 22 42 49 91,"[""07 77 88 74 14"", ""27 22 42 49 91""]"
ph_929e3da48bb1,VAL DE GRACE,SECTION DE COCODY,RIVIERA,RIVIERA PALMERAIE / ROUTE DE L'HOTEL BELLECOTE A 200 M DU COLLEGE LE FIGUIER,07 03 81 21 81 ; 01 03 87 15 15 ; 27 22 49 93 44,"[""07 03 81 21 81"", ""01 03 87 15 15"", ""27 22 49 93 44""]"
ph_e873977ca712,BONOUMIN (NVLLE),SECTION DE COCODY,RIVIERA 3 SYNACASSCI ROUTE DE MBADON,COCODY RIVIERA BONOUMIN / VOIE MENANT DU COLLEGE ANDRE MALRHAUX A L'EGLISE LA DESTINEE (NOUVEAU GOUDRON),07 07 93 68 50 ; 27 22 49 49 34,"[""07 07 93 68 50"", ""27 22 49 49 34""]"
ph_bee0b6da96e7,MARIE ESTHER (GRANDE),SECTION DE COCODY,RIVIERA 3 SYNACASSCI ROUTE DE MBADON,RIVIERA PALMERAIE / ROSIERS PROGRAMME 4 / ROUTE DU LYCEE SAINT VIATEUR,07 78 99 92 59 ; 07 79 77 57 71 ; 27 22 49 53 23,"[""07 78 99 92 59"", ""07 79 77 57 71"", ""27 22 49 53 23""]"
ph_0e3da4ba0094,RUE MINISTRE (NVELLE),SECTION DE COCODY,RIVIERA 3 SYNACASSCI ROUTE DE MBADON,RIVIERA PALMERAIE / RUE MINISTRE / DERRIERE LA BICICI PALMERAIE,27 22 59 56 67 ; 07 69 16 56 15 ; 05 04 58 44 56,"[""27 22 59 56 67"", ""07 69 16 56 15"", ""05 04 58 44 56""]"
ph_6e1a2bef046c,ST MOISE (GDE),SECTION DE COCODY,RIVIERA 3 SYNACASSCI ROUTE DE MBADON,COCODY 9EME TRANCHE ABRI 2000 SUR VOIE PRINCIPALE ENTRE ROND POINT ADO ET CELUI AVANT LA PHCIE HERMES,27 22 49 61 36 ; 01 02 43 94 10 ; 07 58 18 81 77,"[""27 22 49 61 36"", ""01 02 43 94 10"", ""07 58 18 81 77""]"
ph_103e3ab839a5,ST VIATEUR,SECTION DE COCODY,RIVIERA 3 SYNACASSCI ROUTE DE MBADON,RIVIERA PALMERAIE / 200 M DU ROND POINT ST VIATEUR ROUTE HOPITAL GENERAL D'ANGRE,07 88 88 04 80,"[""07 88 88 04 80""]"
ph_c2b232fc83a5,BON PASTEUR,SECTION DE COCODY,RIVIERA ATTOBAN FACE COLLEGE JULES FERRY,RIVIERA III CARREFOUR LYCEE FRANÇAIS FACE EGLISE BON PASTEUR PRES DU COLLEGE L'ARDOISE,07 58 09 46 75 ; 27 22 47 04 05 ; 27 22 47 03 91,"[""07 58 09 46 75"", ""27 22 47 04 05"", ""27 22 47 03 91""]"
ph_173343585957,DES CITES SYNACASSI SARL,SECTION DE COCODY,RIVIERA ATTOBAN FACE COLLEGE JULES FERRY,,07 58 14 14 05 ; 25 22 00 13 15,"[""07 58 14 14 05"", ""25 22 00 13 15""]"
ph_0b7f528a1be9,CATLEYAS,SECTION DE COCODY,ROUTE ABATTA / APRES SICTA QUARTIER ORIBAT,BD MITTERRAND CARREFOUR ABATTA,27 22 47 07 79,"[""27 22 47 07 79""]"
ph_50ff43ab073e,KELIAM,SECTION DE COCODY,ROUTE ABATTA / APRES SICTA QUARTIER ORIBAT,CARREFOUR ABATTA / A GAUCHE ROUTE CITE SIR EN BORDURE DU NOUVEAU GOUDRON,07 04 73 04 35,"[""07 04 73 04 35""]"
ph_95ee89f1d78a,ST MARTIN DE FAYA,SECTION DE COCODY,ROUTE ABATTA / APRES SICTA QUARTIER ORIBAT,RIVIERA FAYA PROLONGEMENT CLOTURE NOUVEAU CAMP MILITAIRE D'AKOUEDO APRES CITE GENIE 2000,27 22 55 69 39 ; 01 03 45 38 88 ; 07 59 82 21 15,"[""27 22 55 69 39"", ""01 03 45 38 88"", ""07 59 82 21 15""]"
ph_e5aadf26056b,STS COME ET DAMIEN,SECTION DE COCODY,TERMINUS SOTRA,,07 79 44 54 67 ; 07 58 09 47 56,"[""07 79 44 54 67"", ""07 58 09 47 56""]"
ph_9df673750edb,BOULEVARD Y4,SECTION DE COCODY,ZONE AKOUEDO - PALMERAIE EXTENSION - ABATTA,RIVIERA AKOUEDO PALMERAIE / ZONE ATCI ENTRE LES DEUX RONDS POINTS DU NOUVEAU ET ANCIEN CAMP / A 100 METRES DU GARAGE CFA,05 75 37 44 15 ; 01 71 23 65 56,"[""05 75 37 44 15"", ""01 71 23 65 56""]"
ph_a228319a4470,CADUCEE MODERNE,SECTION DE COCODY,ZONE AKOUEDO - PALMERAIE EXTENSION - ABATTA,AKOUEDO PALMERAIE ZONE ATCI CARREFOUR DU NOUVEAU CAMP ROUTE DE BINGERVILLE A 150 M DE LA VOIE PRINCIPALE,05 85 66 35 35,"[""05 85 66 35 35""]"
ph_db38f83f683f,CEPHAS,SECTION DE COCODY,ZONE AKOUEDO - PALMERAIE EXTENSION - ABATTA,,07 77 74 58 57 ; 07 07 69 48 67,"[""07 77 74 58 57"", ""07 07 69 48 67""]"
ph_d86c05f3f94a,CITE SIR,SECTION DE COCODY,ZONE AKOUEDO - PALMERAIE EXTENSION - ABATTA,ABATTA VERS LA CITE SIR,05 84 33 80 79,"[""05 84 33 80 79""]"
ph_104ec2d11231,CYD NIKO DES LAURIERS,SECTION DE COCODY,ZONE AKOUEDO - PALMERAIE EXTENSION - ABATTA,RIVIERA 5 / BD MITTERRAND FACE PETIT PORTAIL DE LA CITE GENIE 2000,27 22 47 69 27 ; 07 77 00 00 76,"[""27 22 47 69 27"", ""07 77 00 00 76""]"
ph_14af6224b01a,DU FUTUR,SECTION DE COCODY,ZONE AKOUEDO - PALMERAIE EXTENSION - ABATTA,BD MITTERRAND / IMMEUBLE MARIAM / A COTE SOCOPRIX RIVIERA PALMERAIE TRIANGLE ZONE DES IMPOTS,27 22 47 41 57 ; 07 77 33 79 02 ; 01 43 33 99 75,"[""27 22 47 41 57"", ""07 77 33 79 02"", ""01 43 33 99 75""]"
ph_0a3d2df9a109,EAU VIVE,SECTION DE COCODY,ZONE AKOUEDO - PALMERAIE EXTENSION - ABATTA,ROUTE ABATTA / CARREFOUR SUPERMARCHE AB CENTER,27 22 47 34 45 ; 07 58 03 58 00,"[""27 22 47 34 45"", ""07 58 03 58 00""]"
ph_067234062464,ELIEZER,SECTION DE COCODY,ZONE AKOUEDO - PALMERAIE EXTENSION - ABATTA,RIVIERA FAYA CARREFOUR AKOUEDO ZONE OPERATION IMMOBILIERE ATCI,27 22 51 96 72 ; 01 71 49 49 37,"[""27 22 51 96 72"", ""01 71 49 49 37""]"
ph_4de1faadd995,EPHRATA,SECTION DE COCODY,ZONE AKOUEDO - PALMERAIE EXTENSION - ABATTA,PROLONGEMENT MISSION EPHRATA RIVIERA CARREFOUR / ABATTA A GAUCHE SUR LA ROUTE DE LA CITE SIR,05 75 37 94 07 ; 07 77 36 90 10,"[""05 75 37 94 07"", ""07 77 36 90 10""]"
ph_9151ddaeb501,HOSANNA,SECTION DE COCODY,ZONE AKOUEDO - PALMERAIE EXTENSION - ABATTA,RIVIERA 3 TRIANGLE / ENTRE LE CENTRE DES IMPOTS DE LA RIVIERA ET LE RD POINT DE L'ANCIEN CAMP D'AKOUEDO / PRES DE LA CLINIQUE ST VIATEUR,27 22 55 25 59 ; 01 01 17 29 31 ; 07 97 64 33 50,"[""27 22 55 25 59"", ""01 01 17 29 31"", ""07 97 64 33 50""]"
ph_4937e127e271,KAMON N'SIO,SECTION DE COCODY,ZONE AKOUEDO - PALMERAIE EXTENSION - ABATTA,ABATTA RIVIERA EPHRATA IMMEUBLE SYMPHONIUM EN DIRECTION DE LA CITE BNETD ET LA CITE SIR EN VENANT DU,27 21 52 41 53 ; 07 06 84 75 53 ; 01 71 32 65 41 ; 05 64 30 68 05,"[""27 21 52 41 53"", ""07 06 84 75 53"", ""01 71 32 65 41"", ""05 64 30 68 05""]"
ph_ee9e7a7f16b3,KANNIEN,SECTION DE COCODY,ZONE AKOUEDO - PALMERAIE EXTENSION - ABATTA,FACE JULES VERNE / ROUTE DE BINGERVILLE - SYATRESOR / FIN GOUDRON,07 87 61 87 61 ; 01 42 29 29 55,"[""07 87 61 87 61"", ""01 42 29 29 55""]"
ph_44da724185ed,LA BENEDICTION,SECTION DE COCODY,ZONE AKOUEDO - PALMERAIE EXTENSION - ABATTA,ZONE DE LA CITE SIR / EN VENANT DU CHU TOURNER A GAUCHE AUX FEUX TRICOLORES / EN VENANT DU CARREFOUR NOUVEAU GOUDRON ALLER TOUT DROIT AUX FEUX TRICOLORES,27 22 30 42 40 ; 01 61 06 61 00,"[""27 22 30 42 40"", ""01 61 06 61 00""]"
ph_94f45d88e380,LAURIER 9,SECTION DE COCODY,ZONE AKOUEDO - PALMERAIE EXTENSION - ABATTA,A COTE DES GROUPES SCOLAIRES LAURIER 8 ET 9 / ANCIENNE ROUTE DE BINGERVILLE SUR L'AXE ALLANT DU SUPERMARCHHE BON PRIX DE FAYA VERS L'EGLISE WINNERS CHAPEL,07 87 16 73 09 ; 01 40 38 78 78,"[""07 87 16 73 09"", ""01 40 38 78 78""]"
ph_0dc17f6048b4,LES LAUREATS,SECTION DE COCODY,ZONE AKOUEDO - PALMERAIE EXTENSION - ABATTA,"RIVIERA ABATTA / AU REZ DE CHAUSSEE DE L'IMMEUBLE SORANA, A 50M DE L'ECOLE JULES VERNE, PRES DE LA STATION SHELL",05 84 43 15 15,"[""05 84 43 15 15""]"
ph_40d3075a615d,LIVIE,SECTION DE COCODY,ZONE AKOUEDO - PALMERAIE EXTENSION - ABATTA,AKOUEDO VILLAGE ENTRE DISPENSAIRE ET GARE DES WORO WORO / NON LOIN DE LA CITE ATCI,27 22 47 48 78 ; 01 01 83 24 84 ; 07 49 50 84 78,"[""27 22 47 48 78"", ""01 01 83 24 84"", ""07 49 50 84 78""]"
ph_40a428cadddb,ROUTE D'ABATTA,SECTION DE COCODY,ZONE AKOUEDO - PALMERAIE EXTENSION - ABATTA,ROUTE D'ABATTA CITE DU PORT AUTONOME D'ABIDJAN,07 02 28 82 22 ; 27 24 34 03 39,"[""07 02 28 82 22"", ""27 24 34 03 39""]"
ph_201983b309db,ST GEORGES D'AKOUEDO,SECTION DE COCODY,ZONE AKOUEDO - PALMERAIE EXTENSION - ABATTA,RIVIERA III APRES BARRAGE / TOUT DROIT AUTOROUTE DE BINGERVILLE / QUARTIER GENIE 2000 1ER CARREFOUR,27 22 47 22 38,"[""27 22 47 22 38""]"
ph_5d264607d0e8,STE ANNE D'ABATTA,SECTION DE COCODY,ZONE AKOUEDO - PALMERAIE EXTENSION - ABATTA,AKOUEDO EXTENSION / ROUTE D'ABATTA 400 M AVANT LE CARREFOUR MONDIAL BETON AU CARREFOUR ‘'CYBER'',05 05 20 89 11 ; 27 24 55 66 83,"[""05 05 20 89 11"", ""27 24 55 66 83""]"
ph_be63b692365b,BENIABIE,SECTION DE KOUMASSI,ANGRE DJIBI RUE DU MARCHE COCOVICO,BD DU CAIRE TERMINUS BUS 13 26 - 33,27 21 28 95 25,"[""27 21 28 95 25""]"
ph_4514c56fed72,DE KOUMASSI,SECTION DE KOUMASSI,ANGRE DJIBI RUE DU MARCHE COCOVICO,BD DU 7 DECEMBRE / PRES DE LA FORMATION SANITAIRE DE KOUMASSI,27 21 36 19 85,"[""27 21 36 19 85""]"
ph_367db6dbf113,DES SABLES,SECTION DE KOUMASSI,ANGRE DJIBI RUE DU MARCHE COCOVICO,KOUMASSI REMBLAIS / VOIE PRINCIPALE PRES DE LA CITE BATIM SIR,27 21 28 84 17,"[""27 21 28 84 17""]"
ph_ccac233565c3,QUARTIER DIVO,SECTION DE KOUMASSI,ANGRE DJIBI RUE DU MARCHE COCOVICO,KOUMASSI QUARTIER DIVO / ENTRE LE MAQUIS « CALAO » ET LE « CANIVEAU »,05 46 20 86 59,"[""05 46 20 86 59""]"
ph_a5ed1493d621,SAINT LOUIS,SECTION DE KOUMASSI,ANGRE DJIBI RUE DU MARCHE COCOVICO,BD DU CAMEROUN FACE EPP / BARADJI APRES ZONE REMBLAIS ENTRE EGLISE ST. FRANCOIS & EGLISE PRODOMO - LIGNE BUS 05,27 21 36 04 15,"[""27 21 36 04 15""]"
ph_67c5b55b17d0,ST JOSEPH ARTISAN (NVLLE),SECTION DE KOUMASSI,ANGRE DJIBI RUE DU MARCHE COCOVICO,KOUMASSI CARREFOUR CANETON DERRIERE LE LYCEE MUNICIPAL,27 21 36 79 91 ; 07 79 27 71 58,"[""27 21 36 79 91"", ""07 79 27 71 58""]"
ph_23a852be1194,DU CANAL,SECTION DE KOUMASSI,ANGRE MAHOU A LA RUE DES BARS,KOUMASSI REMBLAIS ENTRE LE GD CARREFOUR GABI (FEU TRICOLORE) ET CARREFOUR MILLENIUM 80 M DU MAQUIS « LE TAPIS ROUGE » OU A DROITE DU GROUPE SCOLAIRE LA ROCHELLE EN PROVENANCE DE LA STATION MOBIL,27 21 36 27 48,"[""27 21 36 27 48""]"
ph_d19d8266ccc3,EL RAPHA DE ZOE BRUNO,SECTION DE KOUMASSI,ANGRE MAHOU A LA RUE DES BARS,,27 21 20 62 40 ; 07 87 93 18 93,"[""27 21 20 62 40"", ""07 87 93 18 93""]"
ph_b5d1ca81861a,DE LA BAGOE,SECTION DE KOUMASSI,DERRIERE LE MARCHE ET LA MOSQUEE DE LA DJIBI,KOUMASSI REMBLAIS - BD DU CAMEROUN / CARREFOUR STATION MOBIL ET SODECI MARCORY / FACE CENTRE MEDICAL LIRING,27 21 28 64 14,"[""27 21 28 64 14""]"
ph_10ac64e7ef61,DE PRODOMO,SECTION DE KOUMASSI,DERRIERE LE MARCHE ET LA MOSQUEE DE LA DJIBI,BD CAMEROUN KOUMASSI PRODOMO / CARREFOUR SOPIM PRODOMO / APRES TERRAIN INCH'ALLAH,27 21 28 83 43,"[""27 21 28 83 43""]"
ph_8a304ee9a4f5,FANNY,SECTION DE KOUMASSI,DERRIERE LE MARCHE ET LA MOSQUEE DE LA DJIBI,QUARTIER AKLOMIABLA APRES LES RESIDENCES AGOUTIS / CARREFOUR DU LYCEE MUNICIPAL / TERMINUS BUS 05 ET 32,27 21 36 09 07,"[""27 21 36 09 07""]"
ph_b8b641ad4ad9,INCHALLAH,SECTION DE KOUMASSI,DERRIERE LE MARCHE ET LA MOSQUEE DE LA DJIBI,KOUMASSI REMBLAIS PRES DU CARREFOUR SANS FIL A 50 M DU GROUPE SCOLAIRE ENTENTE,27 21 36 47 01 ; 01 01 53 99 99,"[""27 21 36 47 01"", ""01 01 53 99 99""]"
ph_792a154bb75c,MPIKE,SECTION DE KOUMASSI,DERRIERE LE MARCHE ET LA MOSQUEE DE LA DJIBI,QUARTIER MAIRIE / DERRIERE LA MAIRIE DE KOUMASSI,27 21 36 25 75 ; 07 07 47 80 82,"[""27 21 36 25 75"", ""07 07 47 80 82""]"
ph_9387e7b58845,ST GEORGES,SECTION DE KOUMASSI,DERRIERE LE MARCHE ET LA MOSQUEE DE LA DJIBI,76,27 21 36 03 75,"[""27 21 36 03 75""]"
ph_1187042a60bb,ABYA,SECTION DE KOUMASSI,II PLATEAUX,KOUMASSI REMBLAIS RUE DU CANAL FACE STATION PETROCI,27 21 28 62 36 ; 01 01 01 23 32,"[""27 21 28 62 36"", ""01 01 01 23 32""]"
ph_f2509987aa51,BOULEVARD DU CAMEROUN,SECTION DE KOUMASSI,II PLATEAUX,KOUMASSI REMBLAIS LIGNE 11 / ENTRE LES CARREFOURS COLOMBE ET 3 AMPOULES,27 21 36 34 47 ; 07 47 15 66 61,"[""27 21 36 34 47"", ""07 47 15 66 61""]"
ph_575fe8f711a0,DES LACS (GRANDE),SECTION DE KOUMASSI,II PLATEAUX,KOUMASSI BOULEVARD DU 7 DECEMBRE EN FACE DU FOYER DES JEUNES - PRES DE L'EGLISE ST ETIENNE,27 21 28 56 24 ; 07 07 59 14 97,"[""27 21 28 56 24"", ""07 07 59 14 97""]"
ph_04cd2a431cbc,DU CAMPEMENT,SECTION DE KOUMASSI,II PLATEAUX,KOUMASSI NORD - EST / FACE RESIDENCES AGOUTIS / CARREFOUR CAMPEMENT,27 21 36 18 91 ; 01 02 73 75 07,"[""27 21 36 18 91"", ""01 02 73 75 07""]"
ph_5b43f6d18834,SAINTE PIERRE D'ANGLE,SECTION DE KOUMASSI,II PLATEAUX,"KOUMASSI QUARTIER INCH'ALLAH / RUE DES SCIENCES, AU RDC DE L'IMMEUBLE ‘'LA LUNE''",27 22 46 19 70 ; 07 05 77 39 07,"[""27 22 46 19 70"", ""07 05 77 39 07""]"
ph_d297f3220343,ST LUCIEN,SECTION DE KOUMASSI,II PLATEAUX,KOUMASSI SICOGI III / FACE DEPOT SOTRA / DERNIER ARRET BUS 25,27 21 52 77 57 ; 07 59 06 40 11,"[""27 21 52 77 57"", ""07 59 06 40 11""]"
ph_9a9199229b2d,DE SOPIM,SECTION DE KOUMASSI,KOUMASSI CARREFOUR HOPITAL DE SOWETO,KOUMASSI SOPIM,27 21 36 69 32,"[""27 21 36 69 32""]"
ph_8ed26f0dbbc2,IROKO (GDE),SECTION DE KOUMASSI,KOUMASSI CARREFOUR HOPITAL DE SOWETO,KOUMASSI REMBLAIS / LIGNE BUS 32 PRES ECOLE BAD 5,27 21 56 43 53,"[""27 21 56 43 53""]"
ph_973cc5ec8e12,ST ALBERT,SECTION DE KOUMASSI,KOUMASSI CARREFOUR HOPITAL DE SOWETO,KOUMASSI GD MARCHE / FACE EGLISE METHODISTE CITE DES GRACES,01 01 44 43 65,"[""01 01 44 43 65""]"
ph_3a56ae9ca895,STE FOI,SECTION DE KOUMASSI,KOUMASSI CARREFOUR HOPITAL DE SOWETO,KOUMASSI TERMINUS BUS 05 / FACE LYCEE MUNICIPAL,27 21 56 17 40,"[""27 21 56 17 40""]"
ph_4aacc6bb55f8,DU PONT D'ANOUMABO,SECTION DE MARCORY,ANOUMABO,SISE A MARCORY ANOUMABO A 50 M APRES LE PONT D'ANOUMABO,27 21 26 15 11 ; 07 77 83 78 57,"[""27 21 26 15 11"", ""07 77 83 78 57""]"
ph_08ae5af129ee,JEHOVA - JIRE SARL - U,SECTION DE MARCORY,ANOUMABO,MARCORY ALLIODAN CITE SETAO,27 21 53 80 53 ; 01 01 71 98 45 ; 27 21 26 51 87 ; 05 54 37 08 18,"[""27 21 53 80 53"", ""01 01 71 98 45"", ""27 21 26 51 87"", ""05 54 37 08 18""]"
ph_c0a81eeaf2dc,MISERICORDE,SECTION DE MARCORY,ANOUMABO,MARCORY ANOUMABA VERS ARTCI / AU NIVEAU DE L'INSTITUT FROEBEL,27 21 26 27 97,"[""27 21 26 27 97""]"
ph_4858f9a27fdf,ROMA D'ANOUMABO,SECTION DE MARCORY,ANOUMABO,FACE GROUPE SCOLAIRE ANOUMABO / 300 M AVANT ARTCI,27 21 28 03 80 ; 01 71 61 55 32,"[""27 21 28 03 80"", ""01 71 61 55 32""]"
ph_b5d3b437fee1,IMMACULEE,SECTION DE MARCORY,JUSTE A COTE DE REALKEBAB,MARCORY ZONE 4 C / RUE DR CALMETTE A 500M DE PRIMA CENTER ENTRE LE COLLEGE ET LES COURS SEVIGNE,01 01 30 78 84 ; 05 06 29 41 10 ; 07 78 03 23 78,"[""01 01 30 78 84"", ""05 06 29 41 10"", ""07 78 03 23 78""]"
ph_a327e9f6efe5,BETHESDA RESIDENTIELLE,SECTION DE MARCORY,MARCORY NORD,130 M DE LA CLINIQUE FARAH A 200 M DU TERMINUS 04,01 02 01 50 79,"[""01 02 01 50 79""]"
ph_be2335d19811,DE L'AMITIE,SECTION DE MARCORY,MARCORY NORD,MARCORY NOUVEAU MARCHE / BD DU CAMEROUN / BUS N° 05,27 21 39 83 81 ; 07 77 30 80 32,"[""27 21 39 83 81"", ""07 77 30 80 32""]"
ph_c226bc0faae3,DE LA PAIX,SECTION DE MARCORY,MARCORY NORD,BD DE LORAINE / FACE A LA SIB MARCORY ET STATION TEXACO,27 21 26 30 19 ; 07 08 01 83 38,"[""27 21 26 30 19"", ""07 08 01 83 38""]"
ph_4eab28320cf8,DES LAGUNES,SECTION DE MARCORY,MARCORY NORD,63 80 / RUE DE LA PAIX FACE AGIP & SUPER MARCHE TRADE CENTER FACE COMPTOIR LORRAIN D'AFRIQUE,27 21 26 12 40,"[""27 21 26 12 40""]"
ph_4d28e246a76e,DU GRAND MARCHE DE MARCORY,SECTION DE MARCORY,MARCORY NORD,,27 21 56 90 96,"[""27 21 56 90 96""]"
ph_acbb9c24647d,DU PETIT MARCHE,SECTION DE MARCORY,MARCORY NORD,"RUE DE L'EGLISE STE THERESE EN ALLANT VERS LA PMI MARCORY / 50 M DU MAQUIS ""LE VATICAN"" BUS N° 32",27 21 26 24 33,"[""27 21 26 24 33""]"
ph_1366f455850e,EBATHE,SECTION DE MARCORY,MARCORY NORD,AVENUE DE LA COTE D'IVOIRE / NON LOIN DE LA PMI DE MARCORY,27 21 56 77 15,"[""27 21 56 77 15""]"
ph_0e0db7db5d5d,ELISHAMA,SECTION DE MARCORY,MARCORY NORD,MARCORY GFCI BOULEVARD DU CAMEROUN DANS LE CENTRE COMMERCIAL,25 21 00 33 27 ; 07 78 35 03 64,"[""25 21 00 33 27"", ""07 78 35 03 64""]"
ph_16cabd688c99,LILY MARIE,SECTION DE MARCORY,MARCORY NORD,BOULEVARD DU GABON / MARCORY A COTE LA CLINIQUE LA MADONE,27 21 28 08 88 ; 07 58 47 47 47,"[""27 21 28 08 88"", ""07 58 47 47 47""]"
ph_7ad800ec5da0,STE THERESE,SECTION DE MARCORY,MARCORY NORD,AVENUE T S F,27 21 26 77 10,"[""27 21 26 77 10""]"
ph_84e23ce270d4,TIACOH,SECTION DE MARCORY,MARCORY NORD,CARREFOUR AUTOROUTE & BD DU GABON ANGLE / RUE PIERRE & MARIE CURIE,27 21 26 28 15,"[""27 21 26 28 15""]"
ph_c31fa0b10987,TSF MARCORY,SECTION DE MARCORY,MARCORY NORD,AVENUE TSF MARCORY / FACE COMMISSARIAT DU 9ème ARRONDISSEMENT,27 21 26 78 12 ; 01 51 48 75 70 ; 07 99 70 84 36,"[""27 21 26 78 12"", ""01 51 48 75 70"", ""07 99 70 84 36""]"
ph_993f585d8e90,CANAAN (NVLLE),SECTION DE MARCORY,MARCORY SUD,ZONE 4 C / 36 RUE PAUL LANGEVIN / A 500 M DE MERCEDES,27 21 25 96 76 ; 01 01 03 66 05,"[""27 21 25 96 76"", ""01 01 03 66 05""]"
ph_941fa35584d6,DE BIETRY,SECTION DE MARCORY,MARCORY SUD,24 86 56 / BD DE MARSEILLE (AVANT WAFOU) / CENTRE COMMERCIAL HOLLIDAY / IMMEUBLE SGBCI,27 21 24 86 89,"[""27 21 24 86 89""]"
ph_a3803f48aa4b,DE LA GALERIE,SECTION DE MARCORY,MARCORY SUD,BD. GISCARD D'ESTAING ANGLE RUE THOMAS EDISON (SUPER HAYAT),27 21 35 24 73,"[""27 21 35 24 73""]"
ph_5674452dba51,DU CARREFOUR,SECTION DE MARCORY,MARCORY SUD,29 70 ANGLE BD GISCARD D'ESTAING RUE CHEVALIER DU CLIEU / ZONE 4 A / FACE BICICI MARCORY,27 21 35 11 66,"[""27 21 35 11 66""]"
ph_9f0fa32ac630,KAEMILLA,SECTION DE MARCORY,MARCORY SUD,"CARREFOUR ANCIEN KOUMASSI, A COTE DE OSER, APRES LES RAILS",05 56 22 01 03,"[""05 56 22 01 03""]"
ph_67afee46b354,LANGEVIN,SECTION DE MARCORY,MARCORY SUD,MARCORY ZONE 4 A L'INTERSECTION DE LA RUE PIERRE ET MARIE CURIE ET LA RUE PAUL LANGEVIN,27 21 59 45 70 ; 07 57 38 02 08,"[""27 21 59 45 70"", ""07 57 38 02 08""]"
ph_1f4906261546,NOTRE DAME D'AFRIQUE,SECTION DE MARCORY,MARCORY SUD,37 BD DE MARSEILLE / FACE COLLEGE NOTRE DAME D'AFRIQUE,27 21 25 25 26,"[""27 21 25 25 26""]"
ph_56873a67b1b4,PIERRE & MARIE CURIE,SECTION DE MARCORY,MARCORY SUD,CENTRE COMMERCIAL FRANCISCO / A COTE DE RENAULT ET SUPER EDEN,27 21 35 80 30,"[""27 21 35 80 30""]"
ph_2b0748886271,ST ANTOINE,SECTION DE MARCORY,MARCORY SUD,"MARCORY ZONE 4 / RUE DR BLANCHARD FACE AU NOUVEAU SIEGE RMO, A 100M DE LA MOSQUEE",07 88 88 30 61 ; 07 00 00 00 81,"[""07 88 88 30 61"", ""07 00 00 00 81""]"
ph_cf74d70b5a42,STE MARIE - MAJEURE,SECTION DE MARCORY,MARCORY SUD,MARCORY ZONE 4C / RUE DU CANAL / FACE IMMEUBLE LES ELFES,27 21 25 54 07,"[""27 21 25 54 07""]"
ph_80d5123057a0,STE RUTH,SECTION DE MARCORY,MARCORY SUD,CENTRE COMMERCIAL PRIMA,27 21 35 35 15,"[""27 21 35 35 15""]"
ph_f2e94296d92c,SAINT GILBERT (GRANDE),SECTION DE PORT BOUET,ACCES PAR LA CONTRE - ALLEE,GONZAGUE TERRE ROUGE 2 A 50 METRES DE LA GARE SOTRA,07 05 99 89 89 ; 27 35 97 68 78,"[""07 05 99 89 89"", ""27 35 97 68 78""]"
ph_46577c0b0b0a,ST MICHEL ARCHANGE,SECTION DE PORT BOUET,ACCES PAR LA CONTRE - ALLEE,"PORT - BOUET / IRHO, RUE CARREFOUR MOTARD PRES DE L'EPP HOUPHOUET BOIGNY D'IRHO",07 59 52 98 74,"[""07 59 52 98 74""]"
ph_c499cf9dd191,BELLEVILLE,SECTION DE PORT BOUET,ADJOUFFOU / GONZAQ / ANANI,QUARTIER BELLE VILLE JEAN FOLLY / 100 M CARREFOUR PETIT MARCHE / CARREFOUR LA LOBO,07 69 00 75 85 ; 07 77 82 26 68 ; 01 51 40 11 86,"[""07 69 00 75 85"", ""07 77 82 26 68"", ""01 51 40 11 86""]"
ph_989145f89823,DES PLAGES,SECTION DE PORT BOUET,ADJOUFFOU / GONZAQ / ANANI,,07 58 17 15 97 ; 01 03 16 37 57,"[""07 58 17 15 97"", ""01 03 16 37 57""]"
ph_962d2c3634f7,ELOMA DE GONZAG,SECTION DE PORT BOUET,ADJOUFFOU / GONZAQ / ANANI,PORT BOUET GONZAGUEVILLE / EN FACE DU TERRAIN DE GONZAGUEVILLE / A 150 M DU CARREFOUR TERRE ROUGE,07 58 17 61 48 ; 05 65 23 48 23 ; 07 49 03 25 42,"[""07 58 17 61 48"", ""05 65 23 48 23"", ""07 49 03 25 42""]"
ph_6b4493f35c66,ROUTE DE BASSAM,SECTION DE PORT BOUET,ADJOUFFOU / GONZAQ / ANANI,PORT - BOUET JEAN FOLLY / SISE AU SEIN DU NOUVEAU MARCHE ENTRE LA RUE DU MARCHE ET LA RUE MOBIBOIS,25 20 00 26 63 ; 07 09 61 89 61 ; 01 02 03 65 99 ; 07 57 84 93 46,"[""25 20 00 26 63"", ""07 09 61 89 61"", ""01 02 03 65 99"", ""07 57 84 93 46""]"
ph_48e7cf1d1315,RUE ABRAHAM - M. KAUNAN AMEDEE,SECTION DE PORT BOUET,ADJOUFFOU / GONZAQ / ANANI,PORT BOUET GONZAGUEVILLE COCOTERAIE RUE ABRAHAM PRES DU MARCHE FRANÇAIS A 150 M DE LA VOIE EXPRESS,01 02 54 32 00 ; 07 67 70 70 57 ; 07 48 73 26 74,"[""01 02 54 32 00"", ""07 67 70 70 57"", ""07 48 73 26 74""]"
ph_9f092da9cbc4,SANTE POUR TOUS,SECTION DE PORT BOUET,ADJOUFFOU / GONZAQ / ANANI,PORT BOUET / RUE CASIER CARREFOUR BACHIROU SUR LA VOIE DE L'EGLISE CATHOLIQUE CHRIST ROI DE JEAN FOLLY,01 01 69 38 91 ; 07 08 02 47 86,"[""01 01 69 38 91"", ""07 08 02 47 86""]"
ph_545543e97d29,ST LOUIS DE GONZAG,SECTION DE PORT BOUET,ADJOUFFOU / GONZAQ / ANANI,,07 58 09 46 25 ; 01 42 50 98 55,"[""07 58 09 46 25"", ""01 42 50 98 55""]"
ph_5c173d3595b1,DE L'OCEAN,SECTION DE PORT BOUET,CENTRE,79 43 / ANGLE AV. PACIFIQUE & RUE DES ESPADONS PROLONGEMENT DE LA BOULANGERIE BOE ET DU CEG / PORT BOUET,27 21 27 78 48,"[""27 21 27 78 48""]"
ph_b80902468737,DU PHARE (NVLLE),SECTION DE PORT BOUET,CENTRE,AVENUE DES CARAIBES PRES DU PHARE / TERMINUS BUS 12,27 24 32 85 58 ; 07 58 31 85 31,"[""27 24 32 85 58"", ""07 58 31 85 31""]"
ph_a7235d09f3ae,MALON,SECTION DE PORT BOUET,CENTRE,,27 21 27 96 14 ; 07 68 26 00 40,"[""27 21 27 96 14"", ""07 68 26 00 40""]"
ph_40ea136cfac5,ST AMBROISE,SECTION DE PORT BOUET,CENTRE,,25 21 00 62 75 ; 05 66 01 99 99,"[""25 21 00 62 75"", ""05 66 01 99 99""]"
ph_8ff7933717cc,WHARF SARL,SECTION DE PORT BOUET,CENTRE,"ROUTE DE L'AEROPORT, ENTREE SIPIM, ENTRE LA SOTRA ET L'ÉGLISE CATHOLIQUE ASCENSION HOPITAL / PRES DE LA",07 57 24 12 56,"[""07 57 24 12 56""]"
ph_338743054b9d,DE PORT - BOUET,SECTION DE PORT BOUET,CITE POLICIERE ROUTE DE VRIDI,PRES DU CENTRE PILOTE DES JEUNES DE PORT BOUET,27 21 27 89 17 ; 01 40 77 08 68,"[""27 21 27 89 17"", ""01 40 77 08 68""]"
ph_e23939b118e4,DE LA BENEDICTION,SECTION DE PORT BOUET,FACE LYCEE MUNICIPAL DE GONZAG,CARREFOUR MOTAR DANS LA ZONE DU JOCKEY CLUB - GONZAGUEVILLE COCOTERAIE,01 43 20 82 14 ; 27 33 73 48 46 ; 28 33 73 48 35,"[""01 43 20 82 14"", ""27 33 73 48 46"", ""28 33 73 48 35""]"
ph_a79f299c4a43,ATLANTIQUE,SECTION DE PORT BOUET,GRANDE MOSQUEE,SOGEFIHA PRES DU MARCHE DE NUIT,27 21 27 95 00 ; 25 21 01 17 80 ; 07 12 15 00 18 ; 07 19 26 94 87,"[""27 21 27 95 00"", ""25 21 01 17 80"", ""07 12 15 00 18"", ""07 19 26 94 87""]"
ph_6c7befb9cbf0,BALTIQUE,SECTION DE PORT BOUET,GRANDE MOSQUEE,FACE A L'ABATTOIR,27 21 27 66 71,"[""27 21 27 66 71""]"
ph_73503892b5b0,CHATELET,SECTION DE PORT BOUET,PORT BOUET ADJOUFFOU / ROUTE DE BASSAM,PORT - BOUET GONZAGUE TERRE ROUGE IMMEUBLE COLONEL,07 67 97 04 67 ; 05 01 56 99 80 ; 07 77 39 66 30 ; 05 06 17 13 28,"[""07 67 97 04 67"", ""05 01 56 99 80"", ""07 77 39 66 30"", ""05 06 17 13 28""]"
ph_4580e72009ad,KOFFI KRA,SECTION DE PORT BOUET,PORT BOUET ADJOUFFOU / ROUTE DE BASSAM,GONZAG / CARREFOUR USINE I2T / ENTRE BOULANGERIE / GLACIER AMORE / 200M DE LA VOIE EXPRESS ABIDJAN GRAND - BASSAM,07 58 00 73 24 ; 07 48 64 68 36,"[""07 58 00 73 24"", ""07 48 64 68 36""]"
ph_5cf914cdbf74,DE LA CITE POLICIERE,SECTION DE PORT BOUET,PORT BOUET QUARTIER,,07 07 07 58 00,"[""07 07 07 58 00""]"
ph_c6e6f14f3fe2,DJIGUI,SECTION DE PORT BOUET,PORT BOUET SOGEFIHA FACE AU STADE SENI FOFANA,FACE NOUVEAU MARCHE 30 M DU COMMISSARIAT / ANGLE AVENUE ATLANTIQUE ET AV. PACIFIQUE,27 21 27 75 86,"[""27 21 27 75 86""]"
ph_3833f99c0914,EPIPHANIE,SECTION DE PORT BOUET,VRIDI,VRIDI CITE FACE SALLE POLYVALENTE / GENDARMERIE,27 21 27 00 23,"[""27 21 27 00 23""]"
ph_8e603d8fc3a5,VRIDI - SIR,SECTION DE PORT BOUET,VRIDI,VRIDI CITE / ENTRE LA CITE POLICIERE ET L'HOPITAL MUNICIPAL DE VRIDI CITE,27 21 27 02 60 ; 01 41 85 46 28,"[""27 21 27 02 60"", ""01 41 85 46 28""]"
ph_0db55652de9a,VRIDI - VILLAGE,SECTION DE PORT BOUET,VRIDI,VRIDI CANAL / ZONE DU ROND POINT TERMINUS BUS 19 / NON LOIN DE LA SIR,27 21 39 13 70 ; 27 21 27 58 60,"[""27 21 39 13 70"", ""27 21 27 58 60""]"
ph_6b9e72073c2e,VRIDI PALM - BEACH,SECTION DE PORT BOUET,VRIDI,VRIDI BD PETIT - BASSAM / SIR / CARREFOUR VRIDI CITE,27 21 27 52 04 ; 07 59 06 47 49,"[""27 21 27 52 04"", ""07 59 06 47 49""]"
ph_f2c5b1366da1,DES QUAIS (NLLE),SECTION DE TREICHVILLE,ACCES PAR LA CONTRE - ALLEE,,27 21 24 04 94,"[""27 21 24 04 94""]"
ph_7e93007a7f99,LA VIE ZOE (EX PALAIS DE LA CULTURE),SECTION DE TREICHVILLE,ACCES PAR LA CONTRE - ALLEE,AVENUE 2 BARREE,07 48 01 04 23,"[""07 48 01 04 23""]"
ph_72850dcb7d7b,DES 3 MOSQUEES,SECTION DE TREICHVILLE,DE GRAND BASSAM,DANS L'AVENUE 8 RUE 22 BARREE A 300 M DE LA STATION SHELL IMMEUBLE NANAN YAMOUSSOU RUE 38,27 21 24 21 96,"[""27 21 24 21 96""]"
ph_89934b2ab6f9,DES BRASSEURS,SECTION DE TREICHVILLE,DE GRAND BASSAM,FACE AU CHU DE TREICHVILLE / ENTRE STATION BP ET IMPRIMERIE ABIDJAN CONTINU / I RUE DES BRASSEURS,27 21 25 17 25,"[""27 21 25 17 25""]"
ph_6f7a0e0e7df4,STE JEANNE,SECTION DE TREICHVILLE,DE GRAND BASSAM,ENTREE MARCHE DE BELLEVILLE / FACE STATION PETRO IVOIRE,27 21 24 57 41,"[""27 21 24 57 41""]"
ph_808f95923cee,DU LEVANT,SECTION DE TREICHVILLE,FACE LYCEE MUNICIPAL DE GONZAG,TREICHVILLE AVENUE 19 RUE 13 / DERRIERE CHAWARMA TALAAT,27 21 52 89 53 ; 07 06 99 19 91,"[""27 21 52 89 53"", ""07 06 99 19 91""]"
ph_4549ecea48d5,LA GRACE (NLLE),SECTION DE TREICHVILLE,FACE LYCEE MUNICIPAL DE GONZAG,RUE 12 AVENUE 14,01 01 62 83 29 ; 27 21 52 27 47,"[""01 01 62 83 29"", ""27 21 52 27 47""]"
ph_5ad091fab067,STE ADELE,SECTION DE TREICHVILLE,FACE LYCEE MUNICIPAL DE GONZAG,TREICHVILLE FACADE ARRIERE DU MARCHE DE BELLEVILLE / COTE FRIPERIE NON LOIN DU SUPER MARCHE BONPRIX,27 21 25 47 00 ; 05 84 04 44 46,"[""27 21 25 47 00"", ""05 84 04 44 46""]"
ph_f1a1977f6c2c,DU GRAND MARCHE,SECTION DE TREICHVILLE,PORT BOUET ADJOUFFOU / ROUTE DE BASSAM,ANGLE RUE 13 / AVENUE 8 PLACE DE L'ANCIEN MARCHE,27 21 24 00 72,"[""27 21 24 00 72""]"
ph_c52a3713a071,MEROUANE,SECTION DE TREICHVILLE,PORT BOUET ADJOUFFOU / ROUTE DE BASSAM,,27 21 24 09 29,"[""27 21 24 09 29""]"
ph_2b64008bf07a,ROCHE,SECTION DE TREICHVILLE,PORT BOUET ADJOUFFOU / ROUTE DE BASSAM,TREICHVILLE AUX FEUX DE LA GARE DE BASSAM / IMMEUBLE ROCHE,27 21 53 89 96 ; 07 10 00 71 71 ; 01 51 53 66 66,"[""27 21 53 89 96"", ""07 10 00 71 71"", ""01 51 53 66 66""]"
ph_2a447beecdea,DE L'ENTENTE,SECTION DE TREICHVILLE,TREICHVILLE ZONE PORTUAIRE / GRAND MOULIN,,27 21 25 26 95 ; 07 97 60 60 37,"[""27 21 25 26 95"", ""07 97 60 60 37""]"
ph_42206feb95d0,CHENAIN,SECTION DE YOPOUGON,ABOBODOUME / LOCODJORO,JERUSALEM / ROUTE ABOBODOUME / 200 M DE L'HOTEL GRAN - MAXIME,27 23 50 13 78 ; 07 58 49 96 75 ; 01 60 67 42 45,"[""27 23 50 13 78"", ""07 58 49 96 75"", ""01 60 67 42 45""]"
ph_2b23f8142e7d,D'ABOBODOUME,SECTION DE YOPOUGON,ABOBODOUME / LOCODJORO,FACE NOUVEAU LYCEE MUNICIPAL D'ATTECOUBE / PRES DE LA FORMATION SANITAIRE M. FAITAI ABOBODOUME,27 21 32 39 90 ; 01 71 28 85 72 ; 07 58 48 07 89,"[""27 21 32 39 90"", ""01 71 28 85 72"", ""07 58 48 07 89""]"
ph_91fa4110ee95,DE LOCODJORO SARL,SECTION DE YOPOUGON,ABOBODOUME / LOCODJORO,,01 02 25 21 31,"[""01 02 25 21 31""]"
ph_e6cff5e76cb6,NOTRE DAME DES VICTOIRES,SECTION DE YOPOUGON,ABOBODOUME / LOCODJORO,ATTECOUBE MOSSIKRO / A 200 M DU CARREFOUR LOCODJORO,07 57 27 04 45 ; 07 78 97 32 75,"[""07 57 27 04 45"", ""07 78 97 32 75""]"
ph_d78beacaea2c,STE ADELE,SECTION DE YOPOUGON,ABOBODOUME / LOCODJORO,ABOBODOUME SORTIE DU QUAI DES BATEAUX BUS SOTRA ET STL,07 58 84 51 25 ; 05 44 71 21 31 ; 01 01 02 67 68,"[""07 58 84 51 25"", ""05 44 71 21 31"", ""01 01 02 67 68""]"
ph_e015bb8c78e4,MARIAMA D'ALLOKOI,SECTION DE YOPOUGON,ALLOKOI PK 23,AUTOROUTE DU NORD FACE A LA NOUVELLE ZONE INDUSTRIELLE DE YOPOUGON,07 98 69 13 55 ; 05 74 69 22 25,"[""07 98 69 13 55"", ""05 74 69 22 25""]"
ph_2bf7721224fd,ST AUBIN D'AGBAYATE,SECTION DE YOPOUGON,APRES LE MARCHE EN ALLANT VERS ABOBODOUME,"YOPOUGON AGBAYATE QUARTIER JERUSALEM, CARREFOUR MOSQUEE BLANCHE EN FACE DE LA STATION NP",05 46 05 34 36,"[""05 46 05 34 36""]"
ph_57df352280fc,MICHEL ARCHANGE,SECTION DE YOPOUGON,BASE CIE / ENTREE FACE STATION PETRO IVOIRE,,27 23 46 28 14 ; 07 47 55 74 02,"[""27 23 46 28 14"", ""07 47 55 74 02""]"
ph_0c04b25bd2a4,NIANGON LOKOA,SECTION DE YOPOUGON,BASE CIE / ENTREE FACE STATION PETRO IVOIRE,YOPOUGON NIANGON LOKOA / SITUE APRES LE LYCEE EHIVET GBAGBO,27 23 45 07 80 ; 01 01 25 91 24,"[""27 23 45 07 80"", ""01 01 25 91 24""]"
ph_64c92a071aeb,MERE DE GRACES,SECTION DE YOPOUGON,CARREFOUR DES GBAKAS,27 / / / BANCO NORD SUR L'AXE INSTITUT DES AVEUGLES - S.I BETON,23 22 85 02 ; 05 56 00 43 54 ; 07 20 60 35 60,"[""23 22 85 02"", ""05 56 00 43 54"", ""07 20 60 35 60""]"
ph_4a01b96197b2,ST ETIENNE (NOUVELLE),SECTION DE YOPOUGON,EN ALLANT VERS TOITS - ROUGES,ATTECOUBE / ABOBODOUME CARREFOUR PINASSES EN FACE DE LA GARE LAGUNAIRE AQUALINES,01 01 13 24 13 ; 07 69 50 19 69,"[""01 01 13 24 13"", ""07 69 50 19 69""]"
ph_25748940692a,CARREFOUR KOWEIT,SECTION DE YOPOUGON,EPP BANCO IIX,,27 23 45 84 07,"[""27 23 45 84 07""]"
ph_60a772622147,NIKIBEL,SECTION DE YOPOUGON,EPP BANCO IIX,YOPOUGON SOPIM / ANCIEN BEL AIR AVANT CARREFOUR COLLEGE ST LOUIS ZONE DU MARCHE GFCI FACE MAQUIS LE « PITCH »,01 02 21 77 27 ; 07 58 49 96 92 ; 25 23 00 14 67,"[""01 02 21 77 27"", ""07 58 49 96 92"", ""25 23 00 14 67""]"
ph_31eb4cba4966,YACINE,SECTION DE YOPOUGON,EPP BANCO IIX,YOPOUGON TOIT ROUGE APRES LA POSTE / SUR VOIE ALLANT A LA LONACI ET AU COLLEGE OFFOUMOU YAPO,07 89 84 49 82 ; 01 41 00 02 43,"[""07 89 84 49 82"", ""01 41 00 02 43""]"
ph_08e6c5e08086,D'ANDOKOI,SECTION DE YOPOUGON,FACE STATION PETRO IVOIRE,YOPOUGON ANDOKOI 1ER PONT A DROITE / ENTRE CENTRE IVOIRE COUTURE ET COLLEGE MODERNE (EX CEG),27 23 50 95 02 ; 01 01 47 51 83,"[""27 23 50 95 02"", ""01 01 47 51 83""]"
ph_82d1621f0080,DU 16EME (GRDE),SECTION DE YOPOUGON,FACE STATION PETRO IVOIRE,,07 79 44 55 03 ; 27 24 38 17 60,"[""07 79 44 55 03"", ""27 24 38 17 60""]"
ph_381ee6915ff0,LAGOMA,SECTION DE YOPOUGON,NIANGON SUD A GAUCHE / TERMINUS BUS 27,,27 23 52 70 70 ; 07 07 05 57 93 ; 01 02 10 85 75,"[""27 23 52 70 70"", ""07 07 05 57 93"", ""01 02 10 85 75""]"
ph_21e423c0e12b,INOX,SECTION DE YOPOUGON,NOUVELLE SGBCI,YOPOUGON ROUTE DE DABOU CARREFOUR CITE VERTE NON LOIN DU MARCHE DJEDJE BAGNON,05 04 09 99 82,"[""05 04 09 99 82""]"
ph_e7bfbc525024,MAMY ADJOUA,SECTION DE YOPOUGON,NOUVELLE SGBCI,,07 58 17 62 26,"[""07 58 17 62 26""]"
ph_361f5862d839,IKHLAS,SECTION DE YOPOUGON,QUARTIER MICAO APRES LE PARKING DE CARGILL,YOPOUGON GESCO DERRIERE LA MANUTENTION AFRICAINE,07 78 38 87 17,"[""07 78 38 87 17""]"
ph_f33ea7fab5fb,LA VIE,SECTION DE YOPOUGON,SECTEUR 13,,27 24 34 22 26 ; 07 58 17 29 19 ; 01 03 05 28 70,"[""27 24 34 22 26"", ""07 58 17 29 19"", ""01 03 05 28 70""]"
ph_86330bdc5fae,ANADOR,SECTION DE YOPOUGON,SUPERMARCHE SUPECO ET LA MOSQUEE,YOPOUGON MAROC AU NIVEAU DU CARREFOUR ANADOR / FACE MAQUIS « O BAOULE »,07 09 59 02 14 ; 01 01 35 08 36,"[""07 09 59 02 14"", ""01 01 35 08 36""]"
ph_c36f1ff27d00,ANANERAIE,SECTION DE YOPOUGON,SUPERMARCHE SUPECO ET LA MOSQUEE,ANCIENNE ROUTE DE DABOU / CARREFOUR OASIS / PRES DE LA MOSQUEE ANANERAIE,27 23 50 87 32 ; 07 48 82 56 06 ; 01 41 43 61 89,"[""27 23 50 87 32"", ""07 48 82 56 06"", ""01 41 43 61 89""]"
ph_88d6499b02cf,CARREFOUR GHANDI,SECTION DE YOPOUGON,SUPERMARCHE SUPECO ET LA MOSQUEE,YOPOUGON QUARTIER KOWEIT / CARREFOUR GANDHI PRES GROUPE SCOLAIRE GANDHI,27 23 52 74 43 ; 01 40 95 40 69,"[""27 23 52 74 43"", ""01 40 95 40 69""]"
ph_b6476c41a585,DE SION,SECTION DE YOPOUGON,SUPERMARCHE SUPECO ET LA MOSQUEE,YOPOUGON QUARTIER SIDECI TERMINUS 42 A 100 M D'IGES,07 59 97 73 72 ; 01 02 73 33 34,"[""07 59 97 73 72"", ""01 02 73 33 34""]"
ph_8c8e98422637,DU CENACLE M. BROU ARSENE,SECTION DE YOPOUGON,SUPERMARCHE SUPECO ET LA MOSQUEE,YOPOUGON ZONE CHU / 3EME PONT / A 100 M DE LA CITE POLICIERE EN CONSTRUCTION,27 23 52 23 23 ; 07 09 76 67 67 ; 01 02 56 55 80 ; 06 06 19 15 44,"[""27 23 52 23 23"", ""07 09 76 67 67"", ""01 02 56 55 80"", ""06 06 19 15 44""]"
ph_8c6cce91ed4a,DU NOUVEAU MARCHE DE PORT - BOUET II (EX VALORS),SECTION DE YOPOUGON,SUPERMARCHE SUPECO ET LA MOSQUEE,YOPOUGON FACE DU NOUVEAU MARCHE DE PORT BOUET II,05 86 79 60 39,"[""05 86 79 60 39""]"
ph_975cf792965a,ESPERANCE,SECTION DE YOPOUGON,SUPERMARCHE SUPECO ET LA MOSQUEE,04 37 82 / NIANGON SUD A DROITE / CARREFOUR LOKOA / ROUTE ACADEMY DE LA MER TERMINUS BUS 39,27 23 46 94 23,"[""27 23 46 94 23""]"
ph_ae2fb78e860f,LEA,SECTION DE YOPOUGON,SUPERMARCHE SUPECO ET LA MOSQUEE,NIANGON CARREFOUR CORLAY (EX TEXACO) A COTE MAIRIE ANNEXE EN FACE DE LA POSTE BUS 44 - 27 - 39,27 23 46 02 15 ; 07 48 20 27 86,"[""27 23 46 02 15"", ""07 48 20 27 86""]"
ph_ad2aee76a2eb,NANKOKO,SECTION DE YOPOUGON,SUPERMARCHE SUPECO ET LA MOSQUEE,YOPOUGON CAMP MILITAIRE ENTRE SAPEURS POMPIERS ET CNPS,27 23 45 24 80,"[""27 23 45 24 80""]"
ph_60cc1dd45ec7,SACRE COEUR,SECTION DE YOPOUGON,SUPERMARCHE SUPECO ET LA MOSQUEE,YOPOUGON NOUVEAU QUARTIER / ZONE DE LA POSTE PRES DU TOP PAIN,01 01 44 45 13 ; 07 57 04 99 90,"[""01 01 44 45 13"", ""07 57 04 99 90""]"
ph_ceea2d3dcafa,ST JOSEPH ACADEMIE,SECTION DE YOPOUGON,SUPERMARCHE SUPECO ET LA MOSQUEE,YOPOUGON ACADEMIE DES MERS A 50 M AVANT L'ECOLE ACADEMIE DES MERS,27 23 45 56 97 ; 07 77 98 32 31 ; 07 07 89 12 66,"[""27 23 45 56 97"", ""07 77 98 32 31"", ""07 07 89 12 66""]"
ph_efc11c95addc,ZONE MICAO,SECTION DE YOPOUGON,SUPERMARCHE SUPECO ET LA MOSQUEE,YOPOUGON ZONE INDUSTRIELLE / QUARTIER MICAO CITE HKB,01 52 28 22 81 ; 01 52 10 32 60 ; 01 52 10 32 59,"[""01 52 28 22 81"", ""01 52 10 32 60"", ""01 52 10 32 59""]"
ph_32a3df8720c5,ALICIA,SECTION DE YOPOUGON,TOIT ROUGE / ROUTE ABOBODOUME,YOPOUGON ANANERAIE ROUTE DE DABOU ENTRE MANUTENTION AFRICAINE ET CARREFOUR SODECI FACE QUARTIER BONIKRO,27 23 45 11 52,"[""27 23 45 11 52""]"
ph_182f8c2403dc,BETHEL DE BEAGO,SECTION DE YOPOUGON,TOIT ROUGE / ROUTE ABOBODOUME,YOPOUGON QUARTIER BEAGO / PRES DE L'EGLISE CATHOLIQUE STE TRINITE,07 87 43 77 27 ; 01 40 05 76 48,"[""07 87 43 77 27"", ""01 40 05 76 48""]"
ph_82182ada3585,CARREFOUR COMMISSAIRE MICAO,SECTION DE YOPOUGON,TOIT ROUGE / ROUTE ABOBODOUME,YOPOUGON ZONE INDUSTRIELLE / QUARTIER DEGUERPI,07 19 46 46 07 ; 05 94 94 62 62,"[""07 19 46 46 07"", ""05 94 94 62 62""]"
ph_0f47b24c34b2,DE LA FELICITE,SECTION DE YOPOUGON,TOIT ROUGE / ROUTE ABOBODOUME,YOPOUGON MAROC CARREFOUR OBAMA ENTRE STATION SHELL ET HOTEL KIMI,07 20 10 70 90 ; 25 23 00 20 52,"[""07 20 10 70 90"", ""25 23 00 20 52""]"
ph_6ca4a46492bf,DE PORT BOUET 2 SARL (NVLLE),SECTION DE YOPOUGON,TOIT ROUGE / ROUTE ABOBODOUME,ROUTE NIANGON NORD - FACE MOSQUEE AL BILAL / BUS N° 39,27 23 46 60 53 ; 01 03 21 88 60,"[""27 23 46 60 53"", ""01 03 21 88 60""]"
ph_763cf9bd1eab,JERICHO,SECTION DE YOPOUGON,TOIT ROUGE / ROUTE ABOBODOUME,YOPOUGON NIANGON NORD ACADEMIE FIN GOUDRON (ROUTE DE PAYS BAS),27 23 45 62 38 ; 01 01 18 02 25 ; 07 89 40 14 20,"[""27 23 45 62 38"", ""01 01 18 02 25"", ""07 89 40 14 20""]"
ph_5fbb82eb43c3,MATY,SECTION DE YOPOUGON,TOIT ROUGE / ROUTE ABOBODOUME,27 80 / YOPOUGON NIANGON NORD / ENTRE STATION LUBAFRIQUE & COLLEGE ANADOR,27 23 46 27 15 ; 05 04 98 60 25,"[""27 23 46 27 15"", ""05 04 98 60 25""]"
ph_58574770a4e9,SANTE PLUS,SECTION DE YOPOUGON,TOIT ROUGE / ROUTE ABOBODOUME,YOPOUGON GESCO AUTOROUTE DU NORD 100 METRES AVANT LE CORRIDOR,27 23 52 58 66,"[""27 23 52 58 66""]"
ph_c89c50b92aab,SIDECI - - LEM,SECTION DE YOPOUGON,TOIT ROUGE / ROUTE ABOBODOUME,A 300 M DU SUPERMARCHE ‘'SUPER U'' ANCIEN CINEMA SAGUIDIBA EN ALLANT VERS LA SIDECI,27 23 42 68 84 ; 07 04 53 97 58 ; 05 05 06 19 60,"[""27 23 42 68 84"", ""07 04 53 97 58"", ""05 05 06 19 60""]"
ph_fbfba2e14d08,ST CLEMENT,SECTION DE YOPOUGON,TOIT ROUGE / ROUTE ABOBODOUME,YOPOUGON FACE AU CHU,27 23 41 53 12 ; 07 03 94 98 78,"[""27 23 41 53 12"", ""07 03 94 98 78""]"
ph_8e06854d7b6d,ST LAURENT,SECTION DE YOPOUGON,TOIT ROUGE / ROUTE ABOBODOUME,YOPOUGON CAMP MILITAIRE / GARE GBAKAS / 200 M TERMINUS SOTRA / BUS 37,07 58 09 47 25 ; 27 23 50 48 79,"[""07 58 09 47 25"", ""27 23 50 48 79""]"
ph_75f2a4da4ee0,ASSONVON,SECTION DE YOPOUGON,YOPOUGON,200 M DU CINEMA SAGUIDIBA / PRES HOTEL ASSONVON / DERRIERE LA CNPS,07 58 09 47 10 ; 07 14 36 84 63 ; 05 64 34 87 08,"[""07 58 09 47 10"", ""07 14 36 84 63"", ""05 64 34 87 08""]"
ph_7f846587d919,BEL AIR,SECTION DE YOPOUGON,YOPOUGON,CARREFOUR GFCI,07 58 49 96 94,"[""07 58 49 96 94""]"
ph_41108989edff,CELIA,SECTION DE YOPOUGON,YOPOUGON,"YOPOUGON BANCO II, ROUTE DE DABOU CARREFOUR LYCEE PROFESSIONNEL A COTE DU PETIT MARCHE",25 23 01 86 25,"[""25 23 01 86 25""]"
ph_f9c5131fbc88,CHIGATA,SECTION DE YOPOUGON,YOPOUGON,TOIT ROUGE ROUTE D'ABOBODOUME / 200 M DES SAPEURS POMPIERS / LIGNE BUS 42,27 23 52 93 58 ; 07 99 35 59 01,"[""27 23 52 93 58"", ""07 99 35 59 01""]"
ph_69fd706984c5,DE L'AMITIE (GDE),SECTION DE YOPOUGON,YOPOUGON,YOPOUGON ATTIE NOUVEAU GOUDRON A PROXIMITE DE L'ESPACE ALLOCODROME DE BANCO II / FACE,01 03 13 35 52 ; 01 72 60 56 92,"[""01 03 13 35 52"", ""01 72 60 56 92""]"
ph_a55abbb4b4f0,DE LA MAIRIE,SECTION DE YOPOUGON,YOPOUGON,YOPOUGON QUARTIER SELMER / 200 DE LA MAIRIE / FACE MAQUIS TANTIE MARGOT LIGNE BUS 30,27 23 52 43 06 ; 05 05 63 36 43,"[""27 23 52 43 06"", ""05 05 63 36 43""]"
ph_3cf5ce6731eb,DES 3 PONTS,SECTION DE YOPOUGON,YOPOUGON,YOPOUGON SOGEFIHA ROUTE DE NIANGON PRES CENTRE SANTE (PMI - MATERNITE),27 23 45 43 70 ; 01 03 11 49 26 ; 01 02 03 15 14,"[""27 23 45 43 70"", ""01 03 11 49 26"", ""01 02 03 15 14""]"
ph_51a7977507b5,EDEN,SECTION DE YOPOUGON,YOPOUGON,YOPOUGON TOIT ROUGE / ROUTE D'ABOBODOUME / CARREFOUR SEGBE,27 23 53 12 15 ; 01 01 01 33 33,"[""27 23 53 12 15"", ""01 01 01 33 33""]"
ph_f69e2178765b,GESCO FOURRIERE (GRANDE),SECTION DE YOPOUGON,YOPOUGON,YOPOUGON GESCO A 100M DE LA FOURRIERE AU PIED DU NOUVEL ECHANGEUR,25 23 00 81 56 ; 05 00 16 48 48 ; 07 12 46 66 23,"[""25 23 00 81 56"", ""05 00 16 48 48"", ""07 12 46 66 23""]"
ph_5d44389e23a1,KENEYA,SECTION DE YOPOUGON,YOPOUGON,,27 23 45 33 81 ; 27 23 45 44 65,"[""27 23 45 33 81"", ""27 23 45 44 65""]"
ph_9fe35028220d,LAOULO,SECTION DE YOPOUGON,YOPOUGON,YOPOUGON NOUVEAU QUARTIER / VOIE EXPRESS FACE NOUVEAU BUREAU SODECI,07 09 81 14 59 ; 27 23 41 79 10,"[""07 09 81 14 59"", ""27 23 41 79 10""]"
ph_2b8d4f0b18fd,PALOMA,SECTION DE YOPOUGON,YOPOUGON,YOPOUGON GARE SABLE,27 23 45 15 44,"[""27 23 45 15 44""]"
ph_515b44cb587a,PEFINA,SECTION DE YOPOUGON,YOPOUGON,YOPOUGON CARREFOUR KOUTE PAR EGLISE ST LAURENT ENTRE TERMINUS 40 ET LA CNPS,07 49 03 44 75 ; 01 01 20 56 62,"[""07 49 03 44 75"", ""01 01 20 56 62""]"
ph_d6bf92ada56a,PHALENES,SECTION DE YOPOUGON,YOPOUGON,71 / NIANGON SUD A GAUCHE / EGLISE DES ASSEMBLEES DE DIEU,27 23 46 01 83 ; 01 01 13 81 75,"[""27 23 46 01 83"", ""01 01 13 81 75""]"
ph_ab6f665da28b,SAINT PAUL YOP (NOUVELLE),SECTION DE YOPOUGON,YOPOUGON,YOPOUGON SIPOREX DERRIERE LA POSTE / RUE DU MARCHE GOURO,05 64 28 83 52 ; 07 10 08 29 19,"[""05 64 28 83 52"", ""07 10 08 29 19""]"
ph_947a623bca10,ST ANDRE,SECTION DE YOPOUGON,YOPOUGON,YOPOUGON SICOGI / APRES LA CATHEDRALE ST ANDRE,07 57 49 23 06 ; 25 20 01 01 85,"[""07 57 49 23 06"", ""25 20 01 01 85""]"
ph_b2b7fdafd7fa,ST ANGE EMMANUEL,SECTION DE YOPOUGON,YOPOUGON,YOPOUGON ATTIE TERMINUS BUS 47 ENTRE LE,27 23 48 61 79 ; 01 01 07 48 53 ; 05 65 76 10 27,"[""27 23 48 61 79"", ""01 01 07 48 53"", ""05 65 76 10 27""]"
ph_10930f2b610e,ST HERMANN,SECTION DE YOPOUGON,YOPOUGON,,23 50 72 77 ; 03 38 74 91,"[""23 50 72 77"", ""03 38 74 91""]"
ph_351b6cc96443,ST MARTIN,SECTION DE YOPOUGON,YOPOUGON,,07 58 09 46 13 ; 01 01 13 81 35,"[""07 58 09 46 13"", ""01 01 13 81 35""]"
ph_33116627547a,TEREZA,SECTION DE YOPOUGON,YOPOUGON,YOPOUGON SOGEFIHA « MAGASIN » / ROUTE NIANGON,25 23 01 20 00 ; 07 08 76 84 64,"[""25 23 01 20 00"", ""07 08 76 84 64""]"
ph_92dcf6ee19ea,TIZRA,SECTION DE YOPOUGON,YOPOUGON,YOPOUGON TOIT ROUGE / RUE GROUPE SCOLAIRE OFFOUMOU YAPO / IMMEUBLE ANCIEN BAZAR,27 23 50 04 47,"[""27 23 50 04 47""]"
ph_dbd7da285b5e,WILLIAM PONTY,SECTION DE YOPOUGON,YOPOUGON,YOPOUGON SICOGI FACE COLLEGE WILLIAM PONTY,01 42 71 90 33 ; 01 42 71 90 28 ; 07 77 30 78 04 ; 07 07 32 43 71,"[""01 42 71 90 33"", ""01 42 71 90 28"", ""07 77 30 78 04"", ""07 07 32 43 71""]"
ph_28717a0f8886,ZEULAYET,SECTION DE YOPOUGON,YOPOUGON CARREFOUR ACADEMIE / FACE CITE CNPS,YOPOUGON QUARTIER MAROC / FACE A LA MOSQUEE / NON LOIN DE L'HOTEL KIMI,27 23 45 20 39 ; 07 08 11 82 11,"[""27 23 45 20 39"", ""07 08 11 82 11""]"
ph_82ebc8deeb53,SANDRINA,SECTION DE YOPOUGON,YOPOUGON CITE VERTE 100 M DU TERMINUS BUS 44,YOPOUGON ANANERAIE ENTRE CARREFOUR DE LA SORBONNE ET L'ECOLE LIBANAISE / PRES DE LA,07 78 99 19 30 ; 07 49 27 97 32,"[""07 78 99 19 30"", ""07 49 27 97 32""]"
ph_d50c50d2c980,SOURALEY,SECTION DE YOPOUGON,YOPOUGON NON LOIN DE LA CITE MAMIE ADJOUA,YOPOUGON PORT BOUET II / PRES DU CARREFOUR DU CENTRE SOCIAL DE PORT BOUET II,01 02 81 97 01,"[""01 02 81 97 01""]"
ph_da87810917b6,ZONE INDUSTRIELLE,SECTION DE YOPOUGON,YOPOUGON NON LOIN DE LA CITE MAMIE ADJOUA,YOPOUGON ZONE INDUSTRIELLE ENTREE PRINCIPALE CONTIGUE A L'AGENCE BICICI,27 23 46 51 08 ; 07 59 00 81 07,"[""27 23 46 51 08"", ""07 59 00 81 07""]"
ph_d97bc1bb9aff,DE L'AUTOROUTE (GDE),SECTION DE YOPOUGON,YOPOUGON ROND POINT DU CHU / FACE EGLISE CMA,58 46 / YOPOUGON CORRIDOR DE GESCO - TERMINUS BUS 34 / PRES DE LA GENDARMERIE,27 23 52 61 75 ; 01 01 05 26 77,"[""27 23 52 61 75"", ""01 01 05 26 77""]"
ph_fa635468e898,ST SIMEON,SECTION DE YOPOUGON,YOPOUGON ROND POINT DU CHU / FACE EGLISE CMA,,25 22 00 41 70 ; 07 58 19 53 20,"[""25 22 00 41 70"", ""07 58 19 53 20""]"
ph_b56ab79249a1,DU MILLIONNAIRE,SECTION DE YOPOUGON,YOPOUGON SICOGI,YOPOUGON QUARTIER MILLIONNAIRE / SUR LA VOIE DE L'INSTITUT DES AVEUGLES,01 01 99 94 09 ; 05 45 45 50 35,"[""01 01 99 94 09"", ""05 45 45 50 35""]"
ph_42f7e4a5bf0e,LE LOTUS,SECTION DE YOPOUGON,YOPOUGON SIDECI / FACE COLLEGE IGES,,27 23 45 57 97 ; 07 57 48 53 66,"[""27 23 45 57 97"", ""07 57 48 53 66""]"
ph_5052593486ad,STE RITA DE CASCIA,SECTION DE YOPOUGON,YOPOUGON SIDECI / FACE COLLEGE IGES,YOPOUGON NIANGON NORD NON LOIN DE L'EGLISE STE RITA DE CASCIA,27 23 45 50 79 ; 07 57 64 44 69,"[""27 23 45 50 79"", ""07 57 64 44 69""]"
ph_3a67bdeb663f,DE LA GARE SUD,SECTION DU PLATEAU,JUSTE A COTE DE REALKEBAB,,07 10 10 41 41 ; 07 07 05 15 05,"[""07 10 10 41 41"", ""07 07 05 15 05""]"
ph_1ae48c82875b,DE L'AVENUE NOGUES (NVLLE),SECTION DU PLATEAU,MARCORY SUD,"DANS LE LOCAL COMMERCIAL DE L'IMMEUBLE GREEN, NON LOIN DE LA BSIC",27 20 31 16 12,"[""27 20 31 16 12""]"
ph_5ce482ccf835,LES HARMONIES (NVLLE),SECTION DU PLATEAU,MARCORY SUD,NON LOIN DU CAMP MILITAIRE GALIENI / 20 M DE LA GARE SOTRA DE LA CITE ADMINISTRATIVE BD CARDE FACE,27 20 22 04 92 ; 01 02 02 04 76 ; 01 60 50 22 78,"[""27 20 22 04 92"", ""01 02 02 04 76"", ""01 60 50 22 78""]"
ph_0c133ec559ef,STE ANNE,SECTION DU PLATEAU,MARCORY SUD,1 RUE LECOEUR PLATEAU FACE AMBASSADE DE FRANCE,05 84 91 93 93 ; 07 05 92 27 90,"[""05 84 91 93 93"", ""07 05 92 27 90""]"
